{"type":"FeatureCollection","features":[{"type":"Feature","properties":{"name":"Golden Gate Park","kind":"park"},"geometry":{"type":"Polygon","coordinates":[[[-122.5104899,37.7686094],[-122.5104261,37.7683256],[-122.5104479,37.7681866],[-122.5103947,37.7679569],[-122.510342,37.7677179],[-122.5103064,37.7675234],[-122.5102704,37.7672955],[-122.5102435,37.7670537],[-122.5102166,37.7667719],[-122.510198,37.7665538],[-122.5101911,37.7664028],[-122.5101907,37.7662674],[-122.5101886,37.7661006],[-122.5101888,37.7659755],[-122.5101916,37.7658292],[-122.5101924,37.765702],[-122.510197,37.7655756],[-122.5102033,37.765438],[-122.510258,37.7647943],[-122.5102638,37.7646969],[-122.5102695,37.7646025],[-122.5102706,37.7644836],[-122.5102691,37.76438],[-122.5102582,37.7641804],[-122.510228,37.7641529],[-122.5096558,37.7641817],[-122.5092846,37.7641458],[-122.509264,37.7641446],[-122.5088718,37.764142],[-122.4653945,37.7660635],[-122.4644551,37.7661154],[-122.4642405,37.7661262],[-122.4632543,37.7661705],[-122.4622144,37.7662068],[-122.4606465,37.7662755],[-122.4596535,37.7663331],[-122.4595717,37.7663378],[-122.4585803,37.7663812],[-122.4579805,37.7661986],[-122.4579293,37.7661916],[-122.4577608,37.7661146],[-122.4576511,37.7660653],[-122.4575509,37.7660356],[-122.4574532,37.7660111],[-122.457331,37.7659901],[-122.4571988,37.7659736],[-122.4570677,37.7659688],[-122.4569624,37.765972],[-122.4568532,37.7659813],[-122.4567499,37.7659909],[-122.4566749,37.7659994],[-122.4539944,37.7663506],[-122.4540389,37.7665736],[-122.4534896,37.7666091],[-122.4531806,37.7666291],[-122.45318,37.7666388],[-122.4531818,37.7666596],[-122.4533274,37.7673763],[-122.4534352,37.7679306],[-122.4535504,37.7684335],[-122.4535755,37.7685734],[-122.4535782,37.768618],[-122.4537146,37.7693002],[-122.4536766,37.7693046],[-122.4539971,37.7709044],[-122.4540694,37.7712404],[-122.45415,37.7715597],[-122.4541688,37.7715933],[-122.4541961,37.7717618],[-122.454208,37.7718383],[-122.4542053,37.7718927],[-122.4543055,37.772412],[-122.4543393,37.7725844],[-122.454745,37.7745911],[-122.4547532,37.7746294],[-122.4548065,37.7746518],[-122.454833,37.77465],[-122.4549018,37.7746396],[-122.455194,37.774592],[-122.4582085,37.7742153],[-122.4612354,37.7738591],[-122.4626013,37.7736803],[-122.463336,37.7735927],[-122.4652858,37.7733457],[-122.4660891,37.7733069],[-122.484062,37.7724867],[-122.4841446,37.7724829],[-122.4842585,37.7724777],[-122.4843657,37.7724728],[-122.4958142,37.7719482],[-122.50948,37.7713267],[-122.5105242,37.7712791],[-122.5106094,37.7712731],[-122.5108673,37.7712477],[-122.5108196,37.7709267],[-122.5108208,37.7708875],[-122.5108538,37.7708167],[-122.5108207,37.7705584],[-122.5108045,37.7703026],[-122.5106871,37.7694316],[-122.510664,37.7692686],[-122.5106366,37.7691054],[-122.5106014,37.768932],[-122.5105584,37.7687348],[-122.5104899,37.7686094]]]}},{"type":"Feature","properties":{"name":"Lake Merced Park","kind":"park"},"geometry":{"type":"Polygon","coordinates":[[[-122.4854864,37.7101525],[-122.4852879,37.7093159],[-122.4852725,37.7092355],[-122.4852669,37.7091581],[-122.4852723,37.7090773],[-122.4852922,37.7089929],[-122.4853188,37.7089212],[-122.4853665,37.708837],[-122.4854187,37.7087678],[-122.485479,37.7087052],[-122.4855393,37.7086532],[-122.4856005,37.7086116],[-122.4856665,37.7085726],[-122.4857321,37.7085407],[-122.48579,37.7085174],[-122.4858544,37.7084973],[-122.4859223,37.7084832],[-122.4859924,37.7084736],[-122.4860704,37.708468],[-122.4861561,37.708471],[-122.4862464,37.7084798],[-122.4863387,37.7084966],[-122.48642,37.7085193],[-122.4864995,37.7085512],[-122.4866227,37.7086097],[-122.4866621,37.7086266],[-122.4867237,37.7086421],[-122.486761,37.7086547],[-122.4872321,37.7089249],[-122.4873396,37.7089954],[-122.4874267,37.7090629],[-122.4875005,37.7091313],[-122.4875723,37.7092074],[-122.487648,37.7092995],[-122.4877144,37.7093914],[-122.4877759,37.7094907],[-122.4878347,37.7095889],[-122.4878912,37.7096873],[-122.4879453,37.7097877],[-122.487997,37.70989],[-122.488047,37.7099944],[-122.4887397,37.7115219],[-122.4887871,37.7116122],[-122.4888457,37.7116991],[-122.4889173,37.7117875],[-122.4890997,37.7119717],[-122.4891733,37.7120359],[-122.489258,37.7120963],[-122.4895461,37.7122881],[-122.4896819,37.7123883],[-122.4898404,37.7125094],[-122.4899813,37.7126127],[-122.4908514,37.7131794],[-122.4909572,37.7132521],[-122.4910618,37.7133314],[-122.4911568,37.7134136],[-122.4912402,37.7135041],[-122.4913046,37.7135878],[-122.4919523,37.7144327],[-122.4920325,37.7145338],[-122.492107,37.7146229],[-122.4921883,37.7147125],[-122.4922784,37.7148013],[-122.4923675,37.7148862],[-122.4924611,37.7149685],[-122.4925629,37.7150511],[-122.4926647,37.7151281],[-122.4927642,37.7152019],[-122.4928724,37.7152751],[-122.4929862,37.7153473],[-122.4930947,37.7154118],[-122.4932136,37.7154767],[-122.4933332,37.7155381],[-122.4934511,37.7155932],[-122.49358,37.7156482],[-122.4937026,37.7156971],[-122.493825,37.7157408],[-122.4939461,37.7157829],[-122.4940748,37.7158248],[-122.4942052,37.7158652],[-122.4974349,37.7168296],[-122.4975846,37.7168766],[-122.4977048,37.7169207],[-122.4978333,37.7169733],[-122.497951,37.7170248],[-122.4980751,37.7170838],[-122.4981854,37.7171411],[-122.4982943,37.7172041],[-122.4984067,37.7172743],[-122.4985081,37.7173414],[-122.4986158,37.7174176],[-122.4987205,37.7174995],[-122.4988135,37.7175802],[-122.4989022,37.7176633],[-122.4990008,37.7177626],[-122.4990933,37.717864],[-122.4991807,37.717971],[-122.4992621,37.718081],[-122.499343,37.7182],[-122.4997112,37.718766],[-122.4997641,37.7188489],[-122.4998101,37.7189262],[-122.499853,37.7190073],[-122.4998888,37.7190825],[-122.4999197,37.7191551],[-122.4999532,37.7192469],[-122.4999836,37.7193399],[-122.5000071,37.7194253],[-122.5000247,37.719501],[-122.5000409,37.7195805],[-122.5001425,37.7201101],[-122.5001657,37.7202187],[-122.5001903,37.7203194],[-122.500222,37.7204272],[-122.5002543,37.7205205],[-122.5003097,37.7206505],[-122.5003714,37.7207796],[-122.5004403,37.7209052],[-122.5005186,37.7210276],[-122.5006048,37.7211482],[-122.5006912,37.7212565],[-122.5007854,37.7213638],[-122.5020693,37.7227728],[-122.502167,37.722883],[-122.5022552,37.72299],[-122.5023393,37.7231012],[-122.5024238,37.7232184],[-122.502505,37.7233484],[-122.5025694,37.7234626],[-122.5026261,37.7235807],[-122.5026775,37.7237046],[-122.5027232,37.7238286],[-122.5027658,37.7239539],[-122.5028048,37.7240948],[-122.5028339,37.7242131],[-122.5028567,37.724326],[-122.5028748,37.7244328],[-122.5028892,37.7245421],[-122.5028992,37.724653],[-122.502904,37.7247687],[-122.5029036,37.7248805],[-122.5028984,37.7249972],[-122.5028882,37.7251153],[-122.5028755,37.7252351],[-122.5028604,37.7253294],[-122.5028426,37.7254218],[-122.5028211,37.725515],[-122.502793,37.7256131],[-122.5027648,37.7256933],[-122.502732,37.7257784],[-122.5026912,37.7258807],[-122.5023074,37.7268114],[-122.5022232,37.7269601],[-122.5021979,37.7270146],[-122.5021353,37.7271675],[-122.5021048,37.7273067],[-122.5018024,37.7280415],[-122.5017114,37.7282007],[-122.5016459,37.728359],[-122.501616,37.7284728],[-122.5015667,37.7285599],[-122.5015104,37.7286534],[-122.5014249,37.7287891],[-122.5013343,37.7289275],[-122.5012337,37.7290719],[-122.5011335,37.7292089],[-122.5010347,37.7293356],[-122.5009244,37.7294706],[-122.5008111,37.7296066],[-122.5006933,37.7297398],[-122.500573,37.7298694],[-122.5004439,37.7300025],[-122.5003112,37.730133],[-122.4991769,37.7312328],[-122.4991214,37.731278],[-122.4990604,37.7313163],[-122.4989939,37.731348],[-122.4989305,37.7313703],[-122.4988568,37.7313862],[-122.4987803,37.7313947],[-122.4986999,37.7313957],[-122.4986216,37.7313891],[-122.4985357,37.7313742],[-122.4984665,37.7313536],[-122.4984043,37.7313245],[-122.4983478,37.7312874],[-122.4982938,37.7312444],[-122.4982452,37.7311963],[-122.4982063,37.7311475],[-122.4981768,37.7310998],[-122.4974894,37.7296866],[-122.4974415,37.7296008],[-122.4973862,37.7295174],[-122.4973229,37.7294367],[-122.4972479,37.729358],[-122.4971693,37.7292891],[-122.4970868,37.7292267],[-122.4969951,37.7291687],[-122.4968968,37.7291148],[-122.4967898,37.7290674],[-122.4966836,37.7290276],[-122.4965748,37.7289946],[-122.4964696,37.7289703],[-122.4963637,37.7289526],[-122.4962599,37.728941],[-122.4961498,37.7289348],[-122.4960376,37.7289366],[-122.4959344,37.728944],[-122.4958312,37.7289579],[-122.4957269,37.7289761],[-122.4956248,37.7289988],[-122.4942068,37.7293406],[-122.4939326,37.7293982],[-122.493858,37.7294115],[-122.4937838,37.7294184],[-122.493705,37.7294194],[-122.4936241,37.7294099],[-122.4935416,37.7293948],[-122.4934707,37.7293766],[-122.4934153,37.7293608],[-122.4933598,37.7293344],[-122.4926955,37.7289718],[-122.4926169,37.7289319],[-122.4925261,37.7288899],[-122.4924321,37.7288535],[-122.4923256,37.7288243],[-122.4922198,37.7288024],[-122.4921158,37.7287865],[-122.492025,37.728779],[-122.4919192,37.7287752],[-122.4918621,37.7287771],[-122.4918016,37.7287792],[-122.4916952,37.7287904],[-122.4915914,37.7288081],[-122.4914833,37.7288312],[-122.4913678,37.7288681],[-122.4912606,37.7289108],[-122.4911616,37.7289572],[-122.4910628,37.7290154],[-122.4909814,37.7290733],[-122.4909052,37.7291378],[-122.4908394,37.7292029],[-122.4901283,37.7299545],[-122.4900547,37.7300216],[-122.4899934,37.7300674],[-122.4899252,37.7301112],[-122.4898545,37.7301499],[-122.4897791,37.7301851],[-122.4897018,37.7302139],[-122.48962,37.7302382],[-122.4895379,37.7302567],[-122.4894456,37.7302696],[-122.4893606,37.7302763],[-122.4892783,37.7302789],[-122.4891923,37.7302773],[-122.489102,37.7302683],[-122.4890204,37.7302541],[-122.4889339,37.7302339],[-122.4888435,37.730208],[-122.4883469,37.7300557],[-122.4882248,37.7300149],[-122.4876081,37.7297991],[-122.4874823,37.7297581],[-122.4867642,37.7295375],[-122.4865396,37.7294771],[-122.4860958,37.7293609],[-122.4859936,37.729331],[-122.4859018,37.729299],[-122.4858082,37.7292583],[-122.4857111,37.7292088],[-122.4856252,37.7291528],[-122.4855387,37.7290886],[-122.4854609,37.7290189],[-122.4853908,37.7289437],[-122.4852577,37.7287782],[-122.4851212,37.7286127],[-122.4842912,37.7275594],[-122.484242,37.7274923],[-122.4841994,37.7274233],[-122.4841607,37.7273483],[-122.4841304,37.7272782],[-122.4841084,37.7272052],[-122.4840905,37.7271302],[-122.4840783,37.7270553],[-122.4840746,37.72699],[-122.4840755,37.7269236],[-122.4840818,37.7268523],[-122.4840941,37.7267785],[-122.4841174,37.7266901],[-122.4841463,37.7266109],[-122.4842007,37.7264861],[-122.4844049,37.7260023],[-122.4850945,37.724354],[-122.4851418,37.7242371],[-122.4851796,37.7241186],[-122.4852054,37.7240092],[-122.4852244,37.7238775],[-122.4852352,37.723746],[-122.4852398,37.7235992],[-122.4852121,37.7217137],[-122.4852103,37.7210404],[-122.4851933,37.7176709],[-122.4851986,37.717465],[-122.4852472,37.7164879],[-122.4852607,37.7162831],[-122.4853189,37.7156535],[-122.4853504,37.7153464],[-122.4854051,37.7148234],[-122.4854214,37.7145848],[-122.4854301,37.7144438],[-122.4854462,37.713908],[-122.4854473,37.7137701],[-122.4854306,37.7130497],[-122.485431,37.7128954],[-122.4854833,37.7117223],[-122.4855336,37.7107585],[-122.4855352,37.7106552],[-122.4855352,37.7105642],[-122.485533,37.7104648],[-122.4855241,37.7103645],[-122.4855081,37.7102609],[-122.4854864,37.7101525]]]}},{"type":"Feature","properties":{"name":"John McLaren Park","kind":"park"},"geometry":{"type":"Polygon","coordinates":[[[-122.4251739,37.7224621],[-122.4244088,37.723621],[-122.4242664,37.723714],[-122.424236,37.7238372],[-122.424251,37.7238777],[-122.4239541,37.723962],[-122.4238361,37.7236841],[-122.4237985,37.7236629],[-122.4226405,37.723932],[-122.4199111,37.7246313],[-122.4198879,37.7245725],[-122.4194433,37.7234446],[-122.4184535,37.7236992],[-122.4180057,37.7226082],[-122.417937,37.7225063],[-122.4169511,37.722762],[-122.4167115,37.7221342],[-122.4166152,37.7218818],[-122.4154858,37.7221637],[-122.4155698,37.7223743],[-122.4158499,37.7230561],[-122.4138705,37.723573],[-122.413052,37.723787],[-122.4124968,37.722454],[-122.4124788,37.7224605],[-122.4120511,37.721432],[-122.4118647,37.7209834],[-122.4110981,37.7191154],[-122.411054,37.719007],[-122.4110004,37.718871],[-122.4109418,37.7187451],[-122.4090278,37.7192543],[-122.4089248,37.7190371],[-122.4082381,37.7191185],[-122.4078948,37.7190642],[-122.408709,37.7170923],[-122.4089248,37.7165725],[-122.410277,37.7167107],[-122.4105361,37.7163872],[-122.4110877,37.7164706],[-122.4113531,37.7163183],[-122.4121025,37.7163128],[-122.4123683,37.7163108],[-122.412753,37.716308],[-122.4136067,37.7163017],[-122.4137141,37.7164367],[-122.4147441,37.7160632],[-122.4156367,37.7156151],[-122.4160745,37.7151602],[-122.416289,37.7145831],[-122.416289,37.71423],[-122.4161775,37.7139584],[-122.4160169,37.7137704],[-122.4157054,37.7135307],[-122.4154443,37.7134475],[-122.4158403,37.7125851],[-122.4173754,37.7129709],[-122.418438,37.7132492],[-122.421862,37.7141645],[-122.4221151,37.7135263],[-122.4237279,37.7139847],[-122.4239451,37.7135103],[-122.4238765,37.7132591],[-122.4240996,37.7127634],[-122.4230182,37.7125122],[-122.422199,37.7122574],[-122.4222319,37.712185],[-122.4222958,37.7120443],[-122.4226163,37.7112827],[-122.4227995,37.7110282],[-122.4225581,37.7109115],[-122.4226466,37.7108096],[-122.4230114,37.7108839],[-122.4233252,37.7105847],[-122.4239072,37.7105359],[-122.4241996,37.7104765],[-122.4251571,37.7110643],[-122.4257928,37.7112786],[-122.4268657,37.7115608],[-122.4275494,37.7117929],[-122.4276338,37.7116677],[-122.4276526,37.7116762],[-122.4276687,37.7116851],[-122.4276996,37.7116995],[-122.4279443,37.7118227],[-122.4282344,37.7119675],[-122.4283165,37.7119945],[-122.4277987,37.71333],[-122.4277338,37.7135001],[-122.4276106,37.7138228],[-122.4275329,37.7140263],[-122.4275488,37.714106],[-122.4275605,37.7141645],[-122.4276187,37.7142979],[-122.4274385,37.7148655],[-122.4272612,37.7154239],[-122.4271482,37.7155754],[-122.4271722,37.715695],[-122.4266687,37.7170265],[-122.4266236,37.7170556],[-122.4266211,37.7171083],[-122.4266573,37.7171498],[-122.4262559,37.7180677],[-122.4262252,37.7182636],[-122.4265151,37.7183862],[-122.4264424,37.7184875],[-122.426407,37.7185452],[-122.4263312,37.7185097],[-122.4262222,37.7184565],[-122.4261092,37.7183982],[-122.4259731,37.7183347],[-122.4258968,37.718287],[-122.4258195,37.7182143],[-122.425608,37.7180487],[-122.4255023,37.7179046],[-122.4253871,37.717922],[-122.424766,37.7177586],[-122.4245402,37.717909],[-122.4243416,37.7178874],[-122.4239059,37.7183125],[-122.4237974,37.7197661],[-122.4237797,37.7199248],[-122.4249353,37.7201293],[-122.425094,37.7201749],[-122.4253361,37.7202747],[-122.4253757,37.720289],[-122.4253991,37.7202981],[-122.4255017,37.7203341],[-122.4254071,37.720479],[-122.4243743,37.7219157],[-122.4251914,37.7222959],[-122.4251112,37.7224182],[-122.4251739,37.7224621]]]}},{"type":"Feature","properties":{"name":"Candlestick Point State Recreation Area","kind":"park"},"geometry":{"type":"Polygon","coordinates":[[[-122.37739,37.7143901],[-122.3782182,37.7136987],[-122.378833,37.7130406],[-122.3795553,37.712074],[-122.3799005,37.7116699],[-122.3800883,37.7114959],[-122.3801097,37.711029],[-122.3800854,37.7106027],[-122.3794465,37.7103521],[-122.3789057,37.7099582],[-122.3788457,37.709741],[-122.3787255,37.7094965],[-122.3784848,37.7092797],[-122.3784079,37.7089601],[-122.378344,37.7088532],[-122.3782194,37.7087486],[-122.377932,37.7085884],[-122.3777814,37.7085594],[-122.3770175,37.7088378],[-122.3768334,37.7089143],[-122.3765883,37.7092249],[-122.376348,37.7096391],[-122.3761632,37.7096864],[-122.3758828,37.7096959],[-122.3756957,37.7096323],[-122.3752545,37.7093519],[-122.3750996,37.7092538],[-122.3749451,37.7091791],[-122.3747859,37.7091298],[-122.3746314,37.709028],[-122.3744683,37.7088922],[-122.3744049,37.7087925],[-122.3744129,37.7086766],[-122.374589,37.708541],[-122.3746571,37.7085187],[-122.3760523,37.7083846],[-122.3770225,37.708419],[-122.3777627,37.708441],[-122.3782879,37.7084376],[-122.3784938,37.7084168],[-122.3787989,37.7084661],[-122.3791217,37.708422],[-122.3794794,37.7084268],[-122.3799193,37.7086228],[-122.380245,37.708747],[-122.3805657,37.7088243],[-122.3808172,37.7088185],[-122.3812713,37.7088832],[-122.3816489,37.7088561],[-122.3819442,37.7089058],[-122.3822531,37.7091502],[-122.3830695,37.7091416],[-122.3836951,37.7091774],[-122.3844418,37.7092724],[-122.3847594,37.7094014],[-122.3855653,37.7098026],[-122.3858014,37.7099681],[-122.3860374,37.7099935],[-122.3870137,37.7095564],[-122.3879954,37.7087628],[-122.3882154,37.7087119],[-122.3883709,37.7088265],[-122.3885533,37.7088392],[-122.3897228,37.7096031],[-122.3901251,37.7094036],[-122.3903129,37.709253],[-122.3905396,37.709177],[-122.3914447,37.7096413],[-122.3915896,37.709828],[-122.3912275,37.7101187],[-122.3910075,37.7102163],[-122.3907715,37.7102842],[-122.3887867,37.7104116],[-122.3870041,37.7109225],[-122.3867436,37.710981],[-122.3865745,37.7109844],[-122.3864001,37.7109607],[-122.3862547,37.7108995],[-122.3861067,37.7108132],[-122.3852265,37.7099782],[-122.385135,37.7098672],[-122.3848519,37.7096498],[-122.3843905,37.7094524],[-122.3838085,37.7093082],[-122.3828053,37.7093039],[-122.3823521,37.7093294],[-122.3819336,37.7094758],[-122.3817244,37.7096201],[-122.3816144,37.7097665],[-122.3814964,37.7100508],[-122.3814695,37.7105672],[-122.3815054,37.7142875],[-122.3815055,37.7142908],[-122.3815957,37.7144813],[-122.3817459,37.7146871],[-122.3823671,37.7150959],[-122.3812409,37.7162782],[-122.3850235,37.718436],[-122.3838741,37.7197423],[-122.3850841,37.7204221],[-122.3852588,37.7201765],[-122.3859355,37.7205982],[-122.3842672,37.7225247],[-122.3872766,37.7243153],[-122.3867831,37.7249008],[-122.385399,37.7241795],[-122.3843309,37.7253819],[-122.3841254,37.7253655],[-122.384014,37.7254728],[-122.383609,37.7259191],[-122.3821168,37.7250979],[-122.3825313,37.7246311],[-122.3817552,37.7241767],[-122.3806788,37.7235585],[-122.3804875,37.7234576],[-122.3810426,37.7228409],[-122.3813265,37.7225275],[-122.3816,37.7222271],[-122.3822126,37.7222404],[-122.383889,37.7231908],[-122.3839426,37.7234391],[-122.3844495,37.7235451],[-122.3851764,37.7239822],[-122.3863217,37.7243916],[-122.3866409,37.7243025],[-122.3867723,37.7241137],[-122.3852945,37.7232592],[-122.3849363,37.7232319],[-122.3844294,37.7227968],[-122.3829797,37.72199],[-122.3826456,37.7217306],[-122.3829804,37.721072],[-122.3832184,37.7209165],[-122.3833767,37.7204667],[-122.3831749,37.7200892],[-122.3827758,37.7198472],[-122.3821267,37.7195841],[-122.3816939,37.7193176],[-122.3814079,37.7189476],[-122.3810431,37.7187821],[-122.3804902,37.7187828],[-122.3799485,37.7184939],[-122.3796001,37.7182644],[-122.3792675,37.7178952],[-122.3786553,37.7176203],[-122.3784235,37.7174918],[-122.3782936,37.7172634],[-122.3777093,37.7171194],[-122.377057,37.7167799],[-122.3759862,37.7160655],[-122.3764658,37.7154465],[-122.376663,37.7152244],[-122.3769684,37.7149461],[-122.37739,37.7143901]]]}},{"type":"Feature","properties":{"name":"Glen Canyon Park","kind":"park"},"geometry":{"type":"Polygon","coordinates":[[[-122.4400833,37.7349646],[-122.4400511,37.7349865],[-122.4399266,37.7352438],[-122.4399091,37.7352812],[-122.4398765,37.7353586],[-122.4398659,37.735396],[-122.4398579,37.7354272],[-122.4398361,37.735521],[-122.4398244,37.7355756],[-122.4398153,37.7356302],[-122.4398068,37.735685],[-122.4398004,37.7357388],[-122.4397974,37.7357943],[-122.4397921,37.7359559],[-122.4397904,37.7360912],[-122.4398012,37.7361121],[-122.4398446,37.736154],[-122.4398766,37.736185],[-122.4398744,37.7363064],[-122.4398361,37.7363368],[-122.4398277,37.7363468],[-122.4398242,37.7363589],[-122.4398236,37.73642],[-122.439822,37.7364331],[-122.439816,37.7364467],[-122.4398001,37.7364639],[-122.4397939,37.7364735],[-122.4397908,37.736485],[-122.4397785,37.7370067],[-122.4397786,37.7370889],[-122.4397831,37.7371463],[-122.4397886,37.7372036],[-122.4397959,37.7372157],[-122.43981,37.7372313],[-122.4398166,37.7372351],[-122.4398255,37.7373344],[-122.4398305,37.7373925],[-122.4398377,37.7374469],[-122.4398469,37.7374896],[-122.43986,37.7375337],[-122.4398756,37.7375724],[-122.439898,37.7376124],[-122.4399301,37.7376564],[-122.4399715,37.7377037],[-122.4400183,37.7377514],[-122.4400684,37.7377971],[-122.440108,37.7378413],[-122.4401382,37.7378751],[-122.4401615,37.7379041],[-122.4401826,37.7379364],[-122.4402004,37.7379689],[-122.4402133,37.7380009],[-122.4402247,37.7380352],[-122.440233,37.7380692],[-122.4402375,37.7381018],[-122.4402396,37.7381385],[-122.4402392,37.7381739],[-122.4402357,37.7382095],[-122.4402274,37.7382468],[-122.440216,37.7382797],[-122.440203,37.7383102],[-122.4401598,37.7384072],[-122.4401431,37.73844],[-122.4401258,37.7384707],[-122.4401062,37.7385016],[-122.4400842,37.7385313],[-122.4400536,37.7385652],[-122.4400172,37.7385981],[-122.4399824,37.7386244],[-122.4399465,37.7386463],[-122.4399092,37.7386654],[-122.4398723,37.7386826],[-122.439833,37.7386979],[-122.4397945,37.7387108],[-122.439749,37.7387235],[-122.4397147,37.7387619],[-122.4398277,37.739108],[-122.4397912,37.7397082],[-122.4399373,37.7401797],[-122.4399608,37.7402554],[-122.4399677,37.7402776],[-122.4399704,37.7403491],[-122.4399851,37.7407881],[-122.4408382,37.7413827],[-122.4408207,37.7415971],[-122.4408039,37.7418035],[-122.4408371,37.7418448],[-122.4412181,37.7423064],[-122.4412588,37.7423557],[-122.4414648,37.7426044],[-122.4420141,37.7439686],[-122.4439539,37.742808],[-122.4456362,37.7434528],[-122.4459945,37.7437626],[-122.4460818,37.744354],[-122.4460934,37.7443673],[-122.4461789,37.7445359],[-122.4466047,37.7451762],[-122.4469679,37.7455089],[-122.4471123,37.7456512],[-122.4471364,37.7456755],[-122.447168,37.7457082],[-122.4471935,37.7457379],[-122.4472089,37.7457653],[-122.4473067,37.7455018],[-122.4471899,37.7452322],[-122.4471563,37.7452411],[-122.4470897,37.7450781],[-122.4470152,37.745082],[-122.4469581,37.7450546],[-122.446845,37.7448489],[-122.4468008,37.7447485],[-122.4467948,37.7447228],[-122.4467839,37.7446163],[-122.4467835,37.7445101],[-122.4467834,37.7443931],[-122.4467793,37.7442923],[-122.446782,37.7442356],[-122.4467974,37.744126],[-122.4468188,37.7440192],[-122.4468518,37.7439503],[-122.446884,37.7438924],[-122.4469176,37.7438422],[-122.4469226,37.7438269],[-122.446944,37.7436496],[-122.4469545,37.7435971],[-122.4470901,37.7431343],[-122.4479458,37.7427771],[-122.4472233,37.7427137],[-122.44714,37.7427037],[-122.4470536,37.7426923],[-122.4469893,37.7426828],[-122.4469232,37.7426686],[-122.4468612,37.7426513],[-122.4468029,37.7426344],[-122.4467257,37.7426076],[-122.4466555,37.7425799],[-122.4465907,37.7425519],[-122.4465346,37.742523],[-122.4464611,37.7424789],[-122.4463989,37.7424386],[-122.4463513,37.7424024],[-122.4463093,37.7423664],[-122.4462666,37.7423245],[-122.4462292,37.7422832],[-122.4461948,37.7422406],[-122.4461614,37.7421922],[-122.4461258,37.7421317],[-122.4461023,37.7420826],[-122.4460835,37.7420343],[-122.4460668,37.7419841],[-122.4460524,37.7419315],[-122.4460434,37.7418711],[-122.4460254,37.7416957],[-122.4460166,37.7415951],[-122.4460111,37.7415429],[-122.4460022,37.7414905],[-122.4459865,37.7414398],[-122.4459617,37.7413903],[-122.4459331,37.7413461],[-122.445898,37.741302],[-122.4458589,37.7412633],[-122.4458184,37.7412282],[-122.4457723,37.7411939],[-122.4457245,37.7411649],[-122.445672,37.7411383],[-122.4456167,37.7411173],[-122.4455592,37.7410999],[-122.4455004,37.7410864],[-122.4450457,37.7410215],[-122.4449758,37.7410085],[-122.4449081,37.7409933],[-122.4448391,37.7409768],[-122.4447687,37.7409545],[-122.444696,37.7409282],[-122.4446225,37.7408982],[-122.4445557,37.740866],[-122.4444932,37.7408307],[-122.4444354,37.7407947],[-122.4443776,37.7407548],[-122.4443228,37.7407104],[-122.4442692,37.7406602],[-122.4442203,37.7406089],[-122.444176,37.7405563],[-122.4441363,37.7405017],[-122.44408,37.7404188],[-122.4440334,37.7403614],[-122.4439849,37.7403088],[-122.4439316,37.7402597],[-122.4438689,37.7402123],[-122.4438042,37.7401695],[-122.4437323,37.7401299],[-122.4436553,37.740094],[-122.4435821,37.7400675],[-122.4435126,37.740047],[-122.4434376,37.7400291],[-122.4429905,37.7399294],[-122.442912,37.7399078],[-122.4428424,37.7398817],[-122.4427712,37.7398516],[-122.4427054,37.7398156],[-122.442641,37.7397725],[-122.4425815,37.7397227],[-122.4425259,37.7396703],[-122.442479,37.7396138],[-122.442442,37.7395593],[-122.4424128,37.7394986],[-122.442391,37.7394379],[-122.4423762,37.7393764],[-122.4423698,37.7393198],[-122.4423699,37.7392648],[-122.4423752,37.7392064],[-122.4424963,37.7385604],[-122.4425023,37.7384991],[-122.4425017,37.7384372],[-122.4424958,37.7383749],[-122.4424856,37.7383103],[-122.4424686,37.7382435],[-122.4424469,37.7381795],[-122.4423137,37.7378142],[-122.4422933,37.7377481],[-122.4422758,37.7376773],[-122.442269,37.7376129],[-122.4422718,37.7375541],[-122.4422789,37.7374928],[-122.4422884,37.7374356],[-122.4423062,37.7373773],[-122.4423283,37.7373249],[-122.4423564,37.7372723],[-122.4423872,37.7372245],[-122.442425,37.7371773],[-122.4424699,37.7371272],[-122.442532,37.7370729],[-122.4426137,37.7370148],[-122.442997,37.7367791],[-122.4434683,37.7364941],[-122.4435334,37.7364547],[-122.4435947,37.7364154],[-122.4436323,37.7363871],[-122.443669,37.736355],[-122.4436991,37.7363195],[-122.4437223,37.7362808],[-122.4437427,37.7362423],[-122.4437603,37.7361986],[-122.443769,37.7361592],[-122.4437743,37.7361206],[-122.4437767,37.7360839],[-122.4437743,37.7360448],[-122.4437674,37.7360094],[-122.4437565,37.7359714],[-122.4437383,37.7359371],[-122.4437188,37.7359049],[-122.4436926,37.7358712],[-122.4436618,37.7358431],[-122.4436337,37.7358207],[-122.4436028,37.7358006],[-122.443571,37.7357826],[-122.4435385,37.7357681],[-122.4434993,37.7357548],[-122.4434623,37.7357452],[-122.4434211,37.735737],[-122.4433812,37.7357327],[-122.443339,37.7357307],[-122.4433004,37.7357323],[-122.4432311,37.7357403],[-122.4431641,37.7357522],[-122.4430872,37.7357706],[-122.4424154,37.735959],[-122.4424283,37.7366655],[-122.4419766,37.7366689],[-122.4416574,37.7366693],[-122.4416029,37.7364728],[-122.4416809,37.7364046],[-122.441722,37.7363628],[-122.4417604,37.7363108],[-122.44179,37.7362567],[-122.4418103,37.7361986],[-122.4418194,37.7361451],[-122.4418232,37.7360945],[-122.4418085,37.7360514],[-122.4414336,37.7359411],[-122.4413882,37.7359279],[-122.4413437,37.735912],[-122.441302,37.7358935],[-122.4412624,37.7358719],[-122.4412315,37.7358523],[-122.4412045,37.735833],[-122.4410657,37.7357272],[-122.4410242,37.7356935],[-122.4409888,37.7356602],[-122.4409574,37.7356273],[-122.4409273,37.7355885],[-122.4407498,37.7352889],[-122.4407238,37.7352503],[-122.4406949,37.7352116],[-122.4406659,37.7351753],[-122.440634,37.7351451],[-122.4405998,37.7351209],[-122.4405635,37.7351001],[-122.4405248,37.7350832],[-122.4404841,37.7350705],[-122.4404387,37.7350635],[-122.4403869,37.7350555],[-122.4401834,37.734999],[-122.4401437,37.7349831],[-122.4400833,37.7349646]]]}},{"type":"Feature","properties":{"name":"Fort Mason","kind":"park"},"geometry":{"type":"Polygon","coordinates":[[[-122.4293014,37.8078969],[-122.4298406,37.8078249],[-122.430117,37.8091938],[-122.430141,37.8092192],[-122.4301758,37.809232],[-122.4306063,37.80918],[-122.4306425,37.809161],[-122.4306546,37.8091292],[-122.430318,37.8074572],[-122.430377,37.8073947],[-122.4309255,37.8073269],[-122.4309939,37.8073703],[-122.431335,37.8090582],[-122.4313654,37.8090751],[-122.4313949,37.8090857],[-122.4316913,37.8090444],[-122.4317342,37.8090264],[-122.4317476,37.8089893],[-122.4314016,37.8073152],[-122.4314539,37.807258],[-122.4320078,37.807187],[-122.4320829,37.8072304],[-122.4323498,37.8085464],[-122.4326287,37.8085093],[-122.4325217,37.8079662],[-122.4323551,37.8071203],[-122.4323327,37.8069626],[-122.4321276,37.8059729],[-122.4321133,37.8059086],[-122.4321115,37.8058993],[-122.4320376,37.8055685],[-122.431992,37.8053206],[-122.4319751,37.8052402],[-122.4319653,37.805192],[-122.4319476,37.8050159],[-122.4317736,37.8041598],[-122.4316431,37.8035144],[-122.4315554,37.8034374],[-122.4315044,37.8034292],[-122.4301842,37.8035952],[-122.4301748,37.8035964],[-122.4299817,37.8036219],[-122.4285717,37.8038093],[-122.4253643,37.8042355],[-122.42537,37.8042605],[-122.4255532,37.8051403],[-122.4257246,37.8059905],[-122.4258424,37.8065723],[-122.4259724,37.8067127],[-122.4260756,37.8068271],[-122.4262251,37.8067754],[-122.4262598,37.8068442],[-122.4263549,37.8068851],[-122.4264132,37.8069162],[-122.4265023,37.8069718],[-122.4265853,37.8070505],[-122.4266305,37.807117],[-122.4266506,37.8071593],[-122.4266674,37.8072226],[-122.4266613,37.8074112],[-122.4266645,37.8075502],[-122.4266925,37.8076881],[-122.4267315,37.8077769],[-122.4267785,37.8078649],[-122.4268481,37.8079794],[-122.4267148,37.8080352],[-122.4267388,37.8081526],[-122.4268689,37.8081244],[-122.4270283,37.8081142],[-122.4270648,37.8081125],[-122.4274435,37.8081592],[-122.4276586,37.8082286],[-122.4278919,37.8082392],[-122.428077,37.8083123],[-122.4281535,37.8083172],[-122.4283338,37.8082561],[-122.4285397,37.808201],[-122.4287543,37.808107],[-122.429001,37.8079827],[-122.4290506,37.8079743],[-122.4290989,37.8079944],[-122.4291807,37.8080135],[-122.4292411,37.8080114],[-122.4292773,37.80797],[-122.4293014,37.8078969]]]}},{"type":"Feature","properties":{"name":"Bayview Park","kind":"park"},"geometry":{"type":"Polygon","coordinates":[[[-122.3944935,37.7178951],[-122.3946545,37.7181072],[-122.394354,37.7183788],[-122.39367,37.718095],[-122.3930421,37.7174242],[-122.3925409,37.7170634],[-122.3917502,37.716686],[-122.391306,37.7164157],[-122.3909305,37.7162934],[-122.3883781,37.713312],[-122.3878524,37.7120304],[-122.3879918,37.7119116],[-122.3886034,37.7125227],[-122.3906955,37.7124039],[-122.3916504,37.7136176],[-122.3962638,37.7144154],[-122.3975298,37.7161552],[-122.3958883,37.7166645],[-122.395266,37.7175217],[-122.3944935,37.7178951]]]}},{"type":"Feature","properties":{"name":null,"kind":"park"},"geometry":{"type":"Polygon","coordinates":[[[-122.4939315,37.7423587],[-122.4954918,37.7646043],[-122.4955976,37.7645997],[-122.4965603,37.7645571],[-122.4964405,37.762848],[-122.4963074,37.7609615],[-122.4962937,37.7607546],[-122.4954867,37.7492383],[-122.4950008,37.7423052],[-122.494038,37.7423545],[-122.4940168,37.7423553],[-122.4939315,37.7423587]]]}},{"type":"Feature","properties":{"name":"Crocker Amazon Playground","kind":"park"},"geometry":{"type":"Polygon","coordinates":[[[-122.4311478,37.7165055],[-122.430494,37.7163534],[-122.4302608,37.7162992],[-122.4293748,37.7160931],[-122.4292497,37.716064],[-122.4273374,37.7156193],[-122.4272613,37.7156084],[-122.4271482,37.7155754],[-122.4272612,37.7154239],[-122.4274385,37.7148655],[-122.4276187,37.7142979],[-122.4275605,37.7141645],[-122.4275488,37.714106],[-122.4275329,37.7140263],[-122.4276106,37.7138228],[-122.4277338,37.7135001],[-122.4277987,37.71333],[-122.4283165,37.7119945],[-122.4290312,37.7123175],[-122.4294504,37.7124047],[-122.4305407,37.7126391],[-122.4315188,37.712842],[-122.4328137,37.7131081],[-122.4329282,37.7131317],[-122.4331425,37.713176],[-122.4332648,37.7132014],[-122.4335288,37.7132569],[-122.4335317,37.7132586],[-122.4335342,37.7132604],[-122.4335376,37.7132645],[-122.4335393,37.7132686],[-122.4335397,37.7132727],[-122.4335398,37.7132769],[-122.433539,37.713281],[-122.4335377,37.7132847],[-122.4335355,37.7132884],[-122.4327592,37.7143796],[-122.4327494,37.7143925],[-122.432744,37.7143988],[-122.4327378,37.714405],[-122.4327314,37.7144111],[-122.4327242,37.7144169],[-122.4327093,37.7144284],[-122.4326914,37.7144443],[-122.4326827,37.7144527],[-122.4326745,37.7144613],[-122.4326663,37.7144702],[-122.432645,37.7144967],[-122.4326306,37.7145144],[-122.4320214,37.71532],[-122.4319884,37.7153648],[-122.4318658,37.7155312],[-122.4318587,37.7155408],[-122.4315641,37.7159406],[-122.4314783,37.716057],[-122.4311478,37.7165055]]]}},{"type":"Feature","properties":{"name":null,"kind":"scrub"},"geometry":{"type":"Polygon","coordinates":[[[-122.4473336,37.7546095],[-122.4482054,37.754699],[-122.4482483,37.7545022],[-122.4483513,37.7542443],[-122.448583,37.7541357],[-122.4491667,37.7539389],[-122.4490465,37.7536743],[-122.4489864,37.7534639],[-122.4489693,37.7532807],[-122.4488663,37.753016],[-122.4488491,37.7528599],[-122.4488405,37.7526767],[-122.448892,37.7525613],[-122.4489693,37.7523985],[-122.4491324,37.752127],[-122.4492182,37.7518555],[-122.4492869,37.7513737],[-122.4493813,37.7511362],[-122.4495958,37.7510072],[-122.4497589,37.7509326],[-122.4498276,37.750729],[-122.4499735,37.750729],[-122.4500507,37.7503897],[-122.4501108,37.750125],[-122.4501766,37.7497548],[-122.4500851,37.749745],[-122.4500937,37.7493853],[-122.4499821,37.7492835],[-122.449819,37.7491206],[-122.4497418,37.7489849],[-122.4494928,37.7489509],[-122.4491667,37.7489509],[-122.4490023,37.7490269],[-122.4488589,37.7489625],[-122.4485315,37.7494396],[-122.4482192,37.7498915],[-122.4480431,37.7500611],[-122.4480337,37.7500707],[-122.4477368,37.7499786],[-122.4475702,37.7498264],[-122.4475607,37.7497896],[-122.4475016,37.7495617],[-122.4475053,37.7494614],[-122.4475183,37.7491548],[-122.4472698,37.7490663],[-122.4469351,37.7488831],[-122.4466261,37.7486455],[-122.4461197,37.7485369],[-122.4457077,37.7485573],[-122.4454931,37.7486727],[-122.4453816,37.7488966],[-122.4453816,37.7490663],[-122.4454502,37.7492835],[-122.4455618,37.7494667],[-122.4461969,37.749935],[-122.4465045,37.7500765],[-122.4466224,37.7501308],[-122.4467851,37.7502056],[-122.4469955,37.7504444],[-122.4465514,37.7514527],[-122.4463429,37.751428],[-122.4463085,37.751652],[-122.4466776,37.7523102],[-122.4466776,37.752446],[-122.4466261,37.7525953],[-122.4465231,37.7526971],[-122.4462828,37.7528531],[-122.4460596,37.7530499],[-122.445991,37.7531314],[-122.4458712,37.7532581],[-122.4457968,37.7535369],[-122.445639,37.7538032],[-122.4453901,37.7539729],[-122.446224,37.7544285],[-122.4463189,37.7543645],[-122.4464587,37.7543096],[-122.4465541,37.7542791],[-122.44669,37.7541748],[-122.4469571,37.7539389],[-122.4472771,37.7539755],[-122.4471797,37.7542423],[-122.4473336,37.7546095]]]}},{"type":"Feature","properties":{"name":"Buena Vista Park","kind":"wood"},"geometry":{"type":"Polygon","coordinates":[[[-122.4431106,37.7704071],[-122.4431407,37.7703993],[-122.4431616,37.7703872],[-122.4431657,37.7703813],[-122.4431776,37.7703673],[-122.4431845,37.7703374],[-122.4431444,37.7701594],[-122.4431253,37.7701118],[-122.4431014,37.7700666],[-122.4430704,37.7700189],[-122.4430308,37.7699723],[-122.4429851,37.7699253],[-122.4429433,37.7698907],[-122.4428489,37.769832],[-122.4428032,37.769811],[-122.442754,37.7697936],[-122.4426326,37.7697714],[-122.4425551,37.7697716],[-122.4425045,37.7697682],[-122.4424599,37.7697591],[-122.442417,37.7697445],[-122.4423817,37.7697266],[-122.4423296,37.76965],[-122.4423078,37.7696015],[-122.4423064,37.7695408],[-122.4423317,37.7694931],[-122.4423722,37.769453],[-122.4428129,37.7691939],[-122.4430557,37.76905],[-122.4431717,37.7689729],[-122.4432771,37.7688969],[-122.4433414,37.7688126],[-122.4433874,37.7687143],[-122.4434904,37.7684343],[-122.4435802,37.7681675],[-122.4437751,37.7675732],[-122.4437743,37.7674435],[-122.4437358,37.7672686],[-122.4436882,37.7670828],[-122.4436308,37.7669559],[-122.4435576,37.7668193],[-122.4435051,37.7667553],[-122.4434363,37.7666942],[-122.4431417,37.7665118],[-122.4430847,37.7664756],[-122.4430385,37.766408],[-122.4429967,37.7662806],[-122.4429475,37.7661962],[-122.4429162,37.766163],[-122.4428751,37.766128],[-122.4428246,37.7660998],[-122.4427421,37.7660485],[-122.4426909,37.7660244],[-122.4426642,37.7660153],[-122.4426354,37.7660054],[-122.4425496,37.765989],[-122.4424582,37.7659617],[-122.4423929,37.7659524],[-122.4421809,37.7659465],[-122.4421117,37.7659546],[-122.442059,37.765971],[-122.4420131,37.7659917],[-122.4419414,37.766036],[-122.4418647,37.7660886],[-122.4417129,37.7661999],[-122.4414002,37.7664281],[-122.4407976,37.7669005],[-122.4407444,37.76695],[-122.4407044,37.7669976],[-122.4403615,37.7675694],[-122.4402886,37.7676713],[-122.4402582,37.7677062],[-122.4402005,37.7677637],[-122.4401532,37.7678056],[-122.4401048,37.7678414],[-122.4399774,37.7679124],[-122.4393267,37.7682305],[-122.439097,37.7683363],[-122.4389841,37.7683901],[-122.4389274,37.7684212],[-122.4388836,37.7684567],[-122.438752,37.7686182],[-122.4385127,37.7689524],[-122.4384925,37.7689813],[-122.4384593,37.7690217],[-122.438453,37.7690295],[-122.4384325,37.7690841],[-122.4384485,37.7691472],[-122.438467,37.7691833],[-122.4386536,37.7693917],[-122.4389142,37.7696501],[-122.4391754,37.7698712],[-122.4393376,37.7699961],[-122.4394262,37.7701173],[-122.439505,37.7702568],[-122.4396031,37.7703857],[-122.439678,37.7704447],[-122.4397827,37.7704942],[-122.4400566,37.7705829],[-122.4403819,37.7706949],[-122.4404594,37.7707246],[-122.4405697,37.7707324],[-122.4420015,37.7705529],[-122.4431106,37.7704071]]]}},{"type":"Feature","properties":{"name":"Sunset Dunes","kind":"park"},"geometry":{"type":"Polygon","coordinates":[[[-122.5062816,37.7356473],[-122.5064827,37.7356458],[-122.5066167,37.7356624],[-122.5069005,37.7356976],[-122.5069269,37.7361622],[-122.5069561,37.7366776],[-122.5078716,37.7436415],[-122.507982,37.744511],[-122.5097082,37.7578441],[-122.5100196,37.7604071],[-122.5104964,37.7638782],[-122.5104405,37.7638798],[-122.5103344,37.7638828],[-122.5102225,37.7638866],[-122.5100842,37.7638879],[-122.5099215,37.7638783],[-122.5097894,37.7627972],[-122.5095493,37.7608627],[-122.5093219,37.7590099],[-122.5090587,37.7568693],[-122.5087716,37.7546992],[-122.5085005,37.7526295],[-122.507988,37.7487551],[-122.5073123,37.7438136],[-122.507072,37.7419439],[-122.5062462,37.7356996],[-122.5062602,37.7356537],[-122.5062816,37.7356473]]]}},{"type":"Feature","properties":{"name":"Sunset Reservoir Park","kind":"park"},"geometry":{"type":"Polygon","coordinates":[[[-122.4859102,37.7518756],[-122.4818037,37.7520581],[-122.4816071,37.7485452],[-122.485611,37.7483148],[-122.4857858,37.7500987],[-122.4859102,37.7518756]]]}},{"type":"Feature","properties":{"name":"Sigmund Stern Recreation Grove","kind":"park"},"geometry":{"type":"Polygon","coordinates":[[[-122.4816401,37.7365081],[-122.4818072,37.7365034],[-122.4818596,37.7356676],[-122.4787312,37.7348366],[-122.4786148,37.734806],[-122.478556,37.7347851],[-122.4785016,37.7347713],[-122.4776084,37.7348023],[-122.4761835,37.7348364],[-122.4760623,37.7348394],[-122.4759437,37.7348388],[-122.4753743,37.7348274],[-122.4753452,37.7348334],[-122.4753162,37.7348459],[-122.4753001,37.7348686],[-122.4754544,37.7373613],[-122.4765098,37.7373146],[-122.4765112,37.7373394],[-122.4776078,37.7372965],[-122.479615,37.7372085],[-122.4797838,37.7372094],[-122.4799641,37.7372172],[-122.480141,37.737218],[-122.4813559,37.7371729],[-122.4814116,37.7371716],[-122.4814754,37.7371725],[-122.4815435,37.7371771],[-122.4816086,37.737185],[-122.4816707,37.7371963],[-122.4816401,37.7365081]]]}},{"type":"Feature","properties":{"name":null,"kind":"park"},"geometry":{"type":"Polygon","coordinates":[[[-122.4712572,37.7731629],[-122.4714145,37.7731557],[-122.4723243,37.7731138],[-122.4732717,37.7862919],[-122.4722023,37.7863403],[-122.4720764,37.7845907],[-122.4720629,37.7844028],[-122.4720634,37.7843837],[-122.4712572,37.7731629]]]}},{"type":"Feature","properties":{"name":"Bernal Heights Park","kind":"park"},"geometry":{"type":"Polygon","coordinates":[[[-122.4157647,37.7422024],[-122.4163312,37.7420734],[-122.4163484,37.7419241],[-122.4167947,37.7419445],[-122.4168634,37.7418427],[-122.4170567,37.7419307],[-122.4171466,37.7419716],[-122.4174041,37.7422228],[-122.4173951,37.7423527],[-122.4175929,37.742406],[-122.416726,37.7437024],[-122.4164628,37.7436183],[-122.4156703,37.7447136],[-122.4155931,37.7450055],[-122.4153699,37.7449444],[-122.4151124,37.7449308],[-122.4152087,37.7448019],[-122.4152008,37.744695],[-122.4149252,37.7446015],[-122.4148893,37.7442928],[-122.4144429,37.7441299],[-122.4133997,37.7441976],[-122.4133443,37.7438856],[-122.4118938,37.7439263],[-122.4111556,37.7436956],[-122.4103831,37.7436956],[-122.4097995,37.7432612],[-122.4094218,37.7432001],[-122.4094819,37.7429218],[-122.410057,37.7429286],[-122.4100802,37.7423915],[-122.4103397,37.7424062],[-122.4103483,37.7422025],[-122.4113946,37.742253],[-122.4114032,37.7421648],[-122.4122701,37.7421716],[-122.4122787,37.7420969],[-122.4128705,37.7421172],[-122.4128889,37.7419175],[-122.4134387,37.7419377],[-122.4134473,37.7422295],[-122.4140138,37.7422567],[-122.4139794,37.7425078],[-122.4144092,37.7425266],[-122.4150609,37.7422363],[-122.4157647,37.7422024]]]}},{"type":"Feature","properties":{"name":"Pine Lake Park","kind":"park"},"geometry":{"type":"Polygon","coordinates":[[[-122.48486,37.7370669],[-122.4849442,37.7370618],[-122.4850122,37.7370486],[-122.4850807,37.7370191],[-122.485068,37.7367843],[-122.4852445,37.7366612],[-122.4855535,37.7365458],[-122.4859311,37.7364847],[-122.4863916,37.736552],[-122.4867681,37.736623],[-122.4868532,37.7366642],[-122.4869944,37.7366896],[-122.4871731,37.7367049],[-122.4874172,37.7367422],[-122.4878344,37.736775],[-122.4878764,37.7367665],[-122.4880229,37.7367879],[-122.4880239,37.7367653],[-122.4882008,37.736767],[-122.4882009,37.7367376],[-122.4883948,37.7367396],[-122.4883952,37.7367646],[-122.488605,37.7368011],[-122.4890014,37.7369164],[-122.4891454,37.7369852],[-122.4892386,37.7370415],[-122.4895545,37.7373581],[-122.4895349,37.7373703],[-122.489636,37.7374778],[-122.4897025,37.7375218],[-122.4897359,37.737544],[-122.4897493,37.7375657],[-122.48975,37.7375891],[-122.4897403,37.7376073],[-122.4896392,37.7377069],[-122.4897082,37.7377402],[-122.4897739,37.7377651],[-122.4898507,37.7377887],[-122.4899334,37.7378087],[-122.4900107,37.7378209],[-122.4900878,37.7378286],[-122.490154,37.7378309],[-122.4902246,37.7378293],[-122.4902963,37.7378208],[-122.4903748,37.7378025],[-122.4904539,37.7377809],[-122.4905436,37.7377475],[-122.4906317,37.7377089],[-122.4907137,37.7376656],[-122.4907566,37.7376417],[-122.4908028,37.7376135],[-122.4908442,37.7375854],[-122.4908893,37.737552],[-122.4909207,37.7375255],[-122.4909501,37.7374949],[-122.4909775,37.7374602],[-122.4910414,37.7373645],[-122.4911142,37.7372508],[-122.4911204,37.737227],[-122.4911185,37.7372077],[-122.4911105,37.7371866],[-122.4910697,37.7371343],[-122.4907208,37.7372272],[-122.4904895,37.7369714],[-122.4902851,37.7367164],[-122.4901237,37.7364576],[-122.4899791,37.7362158],[-122.4898015,37.735982],[-122.4895746,37.7358009],[-122.4893402,37.7356825],[-122.489029,37.7356102],[-122.4886326,37.7355675],[-122.4881217,37.7355769],[-122.4876088,37.7355629],[-122.4868355,37.7354698],[-122.4863042,37.7354186],[-122.485805,37.7354229],[-122.485794,37.7352534],[-122.4852359,37.7353172],[-122.4851157,37.7353308],[-122.4850814,37.7351543],[-122.4845063,37.7352358],[-122.4840153,37.7353942],[-122.4836633,37.7354806],[-122.4833184,37.7355213],[-122.4828869,37.7355235],[-122.4826085,37.7355024],[-122.4824268,37.7354675],[-122.4823275,37.7357684],[-122.4818596,37.7356676],[-122.4818072,37.7365034],[-122.4816401,37.7365081],[-122.4816707,37.7371963],[-122.4818967,37.7372063],[-122.4820898,37.7372997],[-122.4823526,37.7373803],[-122.4826101,37.73741],[-122.4828408,37.7373924],[-122.4828244,37.7371553],[-122.48486,37.7370669]]]}},{"type":"Feature","properties":{"name":"Sutro Heights Park","kind":"park"},"geometry":{"type":"Polygon","coordinates":[[[-122.5098885,37.7752411],[-122.5099089,37.7755071],[-122.5098193,37.7755122],[-122.5098167,37.7757987],[-122.5097437,37.7758665],[-122.5097514,37.7762726],[-122.5092774,37.7762928],[-122.5092792,37.7763201],[-122.5093503,37.7773841],[-122.5093762,37.7777461],[-122.50941,37.7781138],[-122.5094432,37.7785192],[-122.5094614,37.7788242],[-122.5094712,37.7788886],[-122.5094802,37.7790372],[-122.5095186,37.7790382],[-122.5095288,37.7792184],[-122.5095007,37.7792215],[-122.5095175,37.7795029],[-122.509532,37.7796532],[-122.5095646,37.7797091],[-122.5096166,37.77974],[-122.5099555,37.7797473],[-122.5101224,37.7797364],[-122.5103993,37.7797183],[-122.5105202,37.7797076],[-122.5106184,37.7796941],[-122.5107039,37.7796775],[-122.5107876,37.7796548],[-122.510871,37.7796248],[-122.5109515,37.7795904],[-122.5110226,37.7795555],[-122.5111737,37.7794767],[-122.5115565,37.7792735],[-122.5119072,37.7790953],[-122.5121635,37.7790209],[-122.5124606,37.7789617],[-122.5126643,37.7789667],[-122.5129061,37.7789746],[-122.5129621,37.7789752],[-122.5130278,37.7789724],[-122.5130808,37.7789675],[-122.5131345,37.7789597],[-122.5131861,37.7789496],[-122.5132362,37.7789361],[-122.5132822,37.7789196],[-122.5133302,37.7788976],[-122.5133725,37.7788745],[-122.5134132,37.778847],[-122.5134474,37.778819],[-122.5134737,37.7787912],[-122.5134953,37.7787585],[-122.5135152,37.7787236],[-122.5135298,37.7786886],[-122.5135404,37.7786506],[-122.5135456,37.7786078],[-122.5135426,37.7785638],[-122.5135289,37.7785156],[-122.513508,37.7784657],[-122.5133295,37.7781071],[-122.5132804,37.7780343],[-122.513233,37.7779735],[-122.5131652,37.7779016],[-122.5130947,37.7778581],[-122.5129922,37.7777852],[-122.5129179,37.7777315],[-122.5128206,37.7776546],[-122.5127642,37.7775918],[-122.5126745,37.7774875],[-122.5126118,37.7774146],[-122.5125336,37.7773265],[-122.5124324,37.7772273],[-122.5123351,37.7771423],[-122.5122283,37.7770581],[-122.5120899,37.7769571],[-122.5119599,37.7768609],[-122.5118611,37.7767909],[-122.5117946,37.7767413],[-122.5117036,37.7766573],[-122.5116062,37.77655],[-122.5115294,37.7764477],[-122.5114781,37.7763768],[-122.5114192,37.7762776],[-122.5113641,37.7761642],[-122.5113231,37.7760792],[-122.5112988,37.7759982],[-122.5112559,37.7758193],[-122.5112058,37.7757895],[-122.5111758,37.7755047],[-122.5111346,37.775203],[-122.5110794,37.7751824],[-122.5103079,37.7752212],[-122.5103094,37.775233],[-122.5100863,37.7752437],[-122.5100854,37.7752336],[-122.5098885,37.7752411]]]}},{"type":"Feature","properties":{"name":"Balboa Park","kind":"park"},"geometry":{"type":"Polygon","coordinates":[[[-122.4418165,37.7266934],[-122.4442358,37.7266852],[-122.444963,37.7266851],[-122.4454648,37.7261504],[-122.4461,37.7253561],[-122.4466407,37.7245414],[-122.4469239,37.7238965],[-122.4469926,37.7230886],[-122.4459075,37.7230886],[-122.4453354,37.7230886],[-122.4448125,37.7230886],[-122.4446553,37.7232744],[-122.4418165,37.7266934]]]}},{"type":"Feature","properties":{"name":null,"kind":"park"},"geometry":{"type":"Polygon","coordinates":[[[-122.4705054,37.7121126],[-122.4708912,37.7121118],[-122.4708828,37.7118496],[-122.4715379,37.7118521],[-122.471639,37.7119831],[-122.4718683,37.7122441],[-122.47201,37.7123825],[-122.4721525,37.7124912],[-122.4722756,37.7125761],[-122.47241,37.7126442],[-122.4722904,37.7128936],[-122.4719433,37.7131491],[-122.4719748,37.7133383],[-122.4718875,37.7133507],[-122.471946,37.7136848],[-122.4713162,37.7137494],[-122.4712541,37.7136424],[-122.4710932,37.7136466],[-122.4710446,37.7136343],[-122.4709636,37.7135694],[-122.4708926,37.7135198],[-122.4708575,37.7135028],[-122.4706507,37.7134005],[-122.4698051,37.7134024],[-122.4698,37.7130095],[-122.4694206,37.7130142],[-122.4694202,37.7129715],[-122.4692601,37.7129729],[-122.4689018,37.7129761],[-122.4689013,37.7128392],[-122.4684673,37.7128203],[-122.4684147,37.712843],[-122.4670048,37.7128528],[-122.4666668,37.7128551],[-122.4663168,37.7128576],[-122.4644546,37.7128705],[-122.4642952,37.7128716],[-122.4628579,37.7117808],[-122.4626521,37.7117808],[-122.4626506,37.7115696],[-122.4626592,37.7115384],[-122.4626792,37.71151],[-122.4627106,37.7114924],[-122.4627458,37.7114839],[-122.4627775,37.7114839],[-122.4633803,37.7115681],[-122.4634968,37.7115858],[-122.4638674,37.7116625],[-122.4640599,37.7117076],[-122.4642523,37.7117406],[-122.4645689,37.7117951],[-122.4647218,37.7118182],[-122.4648443,37.7118353],[-122.4649646,37.7118493],[-122.4650899,37.7118604],[-122.4652145,37.7118689],[-122.4653388,37.7118728],[-122.4654628,37.711874],[-122.4655866,37.7118727],[-122.4657116,37.7118687],[-122.4658312,37.7118612],[-122.4659623,37.711849],[-122.4660923,37.7118339],[-122.4662209,37.7118167],[-122.4663479,37.7117967],[-122.466477,37.7117727],[-122.4666047,37.7117436],[-122.4667436,37.7117104],[-122.4668446,37.7116828],[-122.4669136,37.7116637],[-122.466936,37.7116608],[-122.4669637,37.7116658],[-122.4669866,37.7116764],[-122.4672446,37.7115886],[-122.4683882,37.7119256],[-122.4688944,37.712023],[-122.4688936,37.7119894],[-122.4692718,37.7119877],[-122.4692735,37.7121401],[-122.4692758,37.7122326],[-122.4705072,37.7122254],[-122.4705054,37.7121126]]]}},{"type":"Feature","properties":{"name":"Panhandle","kind":"park"},"geometry":{"type":"Polygon","coordinates":[[[-122.453944,37.7719632],[-122.45291,37.7720955],[-122.4523599,37.7720991],[-122.4508688,37.772289],[-122.449044,37.7725168],[-122.449001,37.7725221],[-122.4475777,37.7727049],[-122.4474057,37.772727],[-122.4442618,37.7731308],[-122.4426565,37.7733353],[-122.4410471,37.7735404],[-122.440896,37.7727935],[-122.4484507,37.7718308],[-122.4505428,37.7715643],[-122.4522123,37.7713516],[-122.4523518,37.7713345],[-122.4523808,37.771331],[-122.4523974,37.771329],[-122.452436,37.7713232],[-122.4524822,37.7713221],[-122.4525557,37.7713251],[-122.4526196,37.7713335],[-122.4526478,37.7712214],[-122.4537649,37.7710784],[-122.453868,37.7715922],[-122.453944,37.7719632]]]}},{"type":"Feature","properties":{"name":"Heron's Head Park","kind":"park"},"geometry":{"type":"Polygon","coordinates":[[[-122.3767952,37.7384485],[-122.3767289,37.7384084],[-122.376562,37.7383059],[-122.3765067,37.7382972],[-122.3762246,37.7384832],[-122.3760739,37.7384775],[-122.3755486,37.738358],[-122.3745591,37.7378374],[-122.3744707,37.7379161],[-122.3743685,37.7378977],[-122.3742471,37.7377602],[-122.3740921,37.7376596],[-122.3737424,37.73745],[-122.3735254,37.7373623],[-122.3733121,37.737321],[-122.3729071,37.7372276],[-122.3727025,37.7373094],[-122.3727366,37.7373713],[-122.3727039,37.7374361],[-122.3726963,37.7374825],[-122.3727192,37.7375323],[-122.3726906,37.7375734],[-122.3726699,37.7375887],[-122.3727018,37.737661],[-122.3728356,37.7377441],[-122.3728735,37.7377576],[-122.3731181,37.7377488],[-122.3732175,37.7377812],[-122.3731054,37.7377689],[-122.3728909,37.737788],[-122.3727372,37.7377589],[-122.3726521,37.7376829],[-122.3726119,37.7376799],[-122.3724935,37.7377806],[-122.3725691,37.737658],[-122.3725774,37.7375769],[-122.3725618,37.7375242],[-122.372614,37.7374653],[-122.3726625,37.7374037],[-122.372676,37.7373009],[-122.37248,37.7372383],[-122.3722841,37.7372201],[-122.3719868,37.7372164],[-122.3716307,37.7372609],[-122.371105,37.737376],[-122.3709493,37.7374284],[-122.3701606,37.7377752],[-122.3695366,37.7379644],[-122.3691918,37.7378991],[-122.3687018,37.7379527],[-122.3685684,37.7379673],[-122.3680308,37.7380741],[-122.3675935,37.7381528],[-122.3675502,37.7381878],[-122.3675347,37.7382209],[-122.3675412,37.738254],[-122.3675732,37.7382852],[-122.3676256,37.7383077],[-122.3682897,37.7382161],[-122.3696846,37.7382299],[-122.370752,37.7380957],[-122.3713614,37.7380957],[-122.3730694,37.738279],[-122.3735546,37.7386854],[-122.3739636,37.7396443],[-122.3744045,37.7396152],[-122.3744552,37.7396183],[-122.3744911,37.7396347],[-122.3758527,37.7404105],[-122.3763048,37.7406681],[-122.3765962,37.7403006],[-122.376868,37.740044],[-122.3764381,37.7398019],[-122.3754659,37.7392941],[-122.3754682,37.7392183],[-122.375459,37.7391298],[-122.3755292,37.7390509],[-122.3758408,37.7386181],[-122.3763456,37.7387305],[-122.3764341,37.7387334],[-122.3765172,37.7386889],[-122.3767952,37.7384485]]]}},{"type":"Feature","properties":{"name":"West Sunset Playground","kind":"park"},"geometry":{"type":"Polygon","coordinates":[[[-122.4967502,37.7478492],[-122.4973906,37.7478212],[-122.4983565,37.747779],[-122.4985464,37.7477759],[-122.498597,37.7477733],[-122.4994331,37.747736],[-122.4995531,37.7477259],[-122.499567,37.7479213],[-122.4996031,37.7484322],[-122.4996865,37.7496148],[-122.4996074,37.7496183],[-122.499233,37.7496348],[-122.4992209,37.7496353],[-122.4983966,37.7496707],[-122.4983984,37.7496804],[-122.4984982,37.7512953],[-122.4980311,37.7513112],[-122.4976839,37.7513294],[-122.4976714,37.7511562],[-122.4976666,37.7511272],[-122.4976649,37.7510917],[-122.4976607,37.7510403],[-122.4975835,37.7499047],[-122.4975811,37.7498691],[-122.4975533,37.7494554],[-122.4975494,37.7494556],[-122.497371,37.7494652],[-122.4973657,37.7494281],[-122.4973355,37.7494294],[-122.4965787,37.7494631],[-122.4964349,37.7494697],[-122.4964464,37.7494175],[-122.4968146,37.7493995],[-122.4968081,37.7492881],[-122.4965867,37.7492972],[-122.4965832,37.7492444],[-122.4965133,37.7482497],[-122.4965756,37.7481874],[-122.4965713,37.7480965],[-122.4967566,37.7479231],[-122.4967502,37.7478492]]]}},{"type":"Feature","properties":{"name":"Mission Dolores Park","kind":"park"},"geometry":{"type":"Polygon","coordinates":[[[-122.4281675,37.761258],[-122.428339,37.7611793],[-122.4280533,37.7581915],[-122.4280403,37.7581614],[-122.4280033,37.7581491],[-122.4259257,37.7582613],[-122.4262231,37.7613739],[-122.4281675,37.761258]]]}},{"type":"Feature","properties":{"name":null,"kind":"scrub"},"geometry":{"type":"Polygon","coordinates":[[[-122.4473336,37.7546095],[-122.4474061,37.7547132],[-122.447453,37.7548037],[-122.4474717,37.754846],[-122.4474821,37.7548858],[-122.4474802,37.7549196],[-122.4474952,37.7549441],[-122.4475208,37.7549425],[-122.4475349,37.7549395],[-122.4475468,37.7549335],[-122.4475478,37.7549546],[-122.4475613,37.7549684],[-122.4475698,37.7549993],[-122.4475641,37.7550348],[-122.4475506,37.7550585],[-122.4475075,37.7550957],[-122.4474479,37.7551212],[-122.447377,37.7551312],[-122.4472942,37.7551267],[-122.4471988,37.7551059],[-122.4471181,37.7550768],[-122.4470232,37.755037],[-122.4469362,37.7550048],[-122.4468373,37.7549804],[-122.4467542,37.7550048],[-122.4466886,37.7550101],[-122.4466198,37.755002],[-122.4465538,37.7549753],[-122.4464914,37.7549365],[-122.4464399,37.7548746],[-122.4463902,37.7548788],[-122.4463929,37.7548405],[-122.4463421,37.7547828],[-122.4462974,37.7547139],[-122.4462583,37.7546311],[-122.4462313,37.7546],[-122.4462123,37.7545722],[-122.4462048,37.7545299],[-122.4462067,37.7544865],[-122.446224,37.7544285],[-122.4453901,37.7539729],[-122.4451927,37.7540407],[-122.445064,37.7542104],[-122.4449524,37.754509],[-122.4449267,37.7548143],[-122.4449352,37.7549908],[-122.4447807,37.7550586],[-122.4448124,37.755186],[-122.444764,37.7553285],[-122.4446434,37.7554251],[-122.4444718,37.7555405],[-122.444334,37.7556355],[-122.4442909,37.7557261],[-122.4443001,37.7559001],[-122.4444288,37.7561648],[-122.4445747,37.756348],[-122.4447121,37.7564701],[-122.4448653,37.7565239],[-122.444984,37.7565414],[-122.445104,37.7565515],[-122.4452442,37.7565244],[-122.4454846,37.7564362],[-122.4457249,37.7563819],[-122.4459466,37.7563582],[-122.446154,37.7563751],[-122.446463,37.7564226],[-122.446688,37.7564567],[-122.4467383,37.7564529],[-122.4470209,37.7564973],[-122.4472183,37.7561376],[-122.4474025,37.7560447],[-122.4476533,37.7559688],[-122.4478136,37.7559466],[-122.4479885,37.7558568],[-122.4481815,37.7558035],[-122.4485613,37.7557817],[-122.4488897,37.7558453],[-122.4491762,37.7557186],[-122.4486933,37.755386],[-122.4485238,37.7552406],[-122.4484427,37.7551626],[-122.4483084,37.7549501],[-122.4482054,37.754699],[-122.4473336,37.7546095]]]}},{"type":"Feature","properties":{"name":"Corona Heights Park","kind":"park"},"geometry":{"type":"Polygon","coordinates":[[[-122.4374679,37.7633932],[-122.4373436,37.7633981],[-122.4373771,37.7638862],[-122.4373369,37.7640786],[-122.4371689,37.7641008],[-122.4367446,37.7642675],[-122.4370223,37.7647692],[-122.4369144,37.7648092],[-122.4370672,37.7650823],[-122.4371759,37.7652883],[-122.4369003,37.7653796],[-122.4369739,37.7655126],[-122.4369937,37.7655495],[-122.4372463,37.7654662],[-122.437386,37.7656239],[-122.4378862,37.7657625],[-122.4377798,37.76598],[-122.4383249,37.7661395],[-122.4384322,37.7659115],[-122.4385697,37.7659551],[-122.4387228,37.7659977],[-122.4390548,37.7660965],[-122.4392204,37.7661441],[-122.43933,37.7661852],[-122.4394316,37.7661074],[-122.4397389,37.7658771],[-122.440057,37.7656416],[-122.4402503,37.7655018],[-122.4404681,37.765338],[-122.440532,37.7653436],[-122.4405655,37.7653199],[-122.4406391,37.7653302],[-122.440649,37.7653211],[-122.4409384,37.7653548],[-122.441003,37.765299],[-122.4410516,37.7653064],[-122.4410511,37.7652755],[-122.4410413,37.7652534],[-122.4407067,37.7649026],[-122.4404039,37.7647332],[-122.4400667,37.7645541],[-122.4393903,37.7642585],[-122.4381899,37.7647831],[-122.4379172,37.7648144],[-122.4378319,37.7647338],[-122.4377333,37.7646073],[-122.4375864,37.7643841],[-122.4377734,37.7642319],[-122.4380304,37.7641161],[-122.4382469,37.7640429],[-122.4388081,37.7640044],[-122.4391287,37.7635738],[-122.4391209,37.7635607],[-122.4390535,37.7635468],[-122.4390678,37.7635287],[-122.438938,37.7635057],[-122.4385161,37.7634285],[-122.4383277,37.7633939],[-122.4380984,37.7633622],[-122.4380327,37.7633534],[-122.437797,37.7633707],[-122.4374679,37.7633932]]]}},{"type":"Feature","properties":{"name":"Presidio Tunnel Tops","kind":"park"},"geometry":{"type":"Polygon","coordinates":[[[-122.4576206,37.8036969],[-122.4544383,37.8041235],[-122.4543553,37.8040787],[-122.4542972,37.8040782],[-122.4542919,37.8040252],[-122.4542537,37.8039365],[-122.4543465,37.8035176],[-122.4544029,37.8032687],[-122.4546441,37.8023163],[-122.4547387,37.802295],[-122.455051,37.8024165],[-122.4553168,37.8024793],[-122.455573,37.8025207],[-122.4561934,37.8016668],[-122.4571286,37.8019414],[-122.4576029,37.8020541],[-122.4578113,37.8020187],[-122.4580341,37.8020354],[-122.4583316,37.8022059],[-122.4576069,37.8024362],[-122.4575922,37.8025181],[-122.4575983,37.8025558],[-122.457617,37.8025872],[-122.4576561,37.802636],[-122.4572256,37.8027524],[-122.4572295,37.8027601],[-122.4572701,37.8028391],[-122.4573106,37.8028896],[-122.4573316,37.8029033],[-122.457366,37.8029253],[-122.4573987,37.8029234],[-122.4575049,37.8028942],[-122.4575099,37.8031454],[-122.4576206,37.8036969]]]}},{"type":"Feature","properties":{"name":"Yosemite Slough","kind":"park"},"geometry":{"type":"Polygon","coordinates":[[[-122.3804875,37.7234576],[-122.3810426,37.7228409],[-122.3813265,37.7225275],[-122.3816,37.7222271],[-122.3816818,37.7223043],[-122.3816751,37.7225697],[-122.381541,37.7227518],[-122.381451,37.7229411],[-122.381467,37.7231696],[-122.381623,37.723453],[-122.3817024,37.7235691],[-122.381873,37.7237615],[-122.382138,37.7238693],[-122.382377,37.7238629],[-122.3825483,37.7237678],[-122.382686,37.7236652],[-122.383062,37.7234659],[-122.3831609,37.723246],[-122.3833649,37.723117],[-122.383586,37.7230755],[-122.3838273,37.7232756],[-122.3838933,37.7234909],[-122.3838468,37.7236216],[-122.3837475,37.7237446],[-122.3837189,37.7239209],[-122.3837998,37.724146],[-122.3841347,37.7243384],[-122.3844844,37.7244934],[-122.3847287,37.724493],[-122.3852335,37.7242027],[-122.3853383,37.7242036],[-122.3843309,37.7253819],[-122.3841254,37.7253655],[-122.383609,37.7259191],[-122.3821168,37.7250979],[-122.3825313,37.7246311],[-122.3823613,37.7245303],[-122.3817552,37.7241767],[-122.3806788,37.7235585],[-122.3804875,37.7234576]]]}},{"type":"Feature","properties":{"name":"Mountain Lake Park","kind":"park"},"geometry":{"type":"Polygon","coordinates":[[[-122.4721477,37.7874465],[-122.4722963,37.7874167],[-122.472321,37.7873522],[-122.4723671,37.7872262],[-122.47241,37.7870989],[-122.4724482,37.786973],[-122.4724835,37.7868446],[-122.4725144,37.7867164],[-122.4725409,37.7865873],[-122.4725663,37.786433],[-122.4725765,37.7863233],[-122.4724681,37.7863282],[-122.4722023,37.7863403],[-122.4722101,37.7864439],[-122.4722206,37.786592],[-122.472224,37.7866502],[-122.4721069,37.7866543],[-122.466322,37.7869274],[-122.4664043,37.7881713],[-122.4687817,37.7876996],[-122.4709873,37.7872621],[-122.4710167,37.7876685],[-122.4721477,37.7874465]]]}},{"type":"Feature","properties":{"name":"Alamo Square","kind":"park"},"geometry":{"type":"Polygon","coordinates":[[[-122.4360656,37.7753628],[-122.4360631,37.7753502],[-122.4360467,37.775341],[-122.4360298,37.7753304],[-122.4359914,37.7753382],[-122.4345656,37.7755171],[-122.434493,37.7755257],[-122.4330481,37.7757097],[-122.4330051,37.775715],[-122.4330143,37.7757579],[-122.4331688,37.7765292],[-122.4331803,37.7765784],[-122.4333317,37.7773485],[-122.4333757,37.7773908],[-122.4348235,37.7772034],[-122.4348826,37.7771959],[-122.4363421,37.77701],[-122.4363823,37.7770041],[-122.4363876,37.7769597],[-122.4362306,37.7761906],[-122.4362246,37.776162],[-122.4362201,37.776141],[-122.4360656,37.7753628]]]}},{"type":"Feature","properties":{"name":"Moscone Recreation Center","kind":"park"},"geometry":{"type":"Polygon","coordinates":[[[-122.4348482,37.8027363],[-122.4346925,37.8019747],[-122.4345745,37.8013969],[-122.4345222,37.8011398],[-122.4327653,37.8013638],[-122.43275,37.8013657],[-122.4319154,37.8014721],[-122.4318959,37.8014746],[-122.431451,37.8015313],[-122.4314895,37.8017089],[-122.431555,37.8020365],[-122.4317772,37.8031288],[-122.4340852,37.8028346],[-122.4347508,37.8027487],[-122.4348482,37.8027363]]]}},{"type":"Feature","properties":{"name":"Alta Plaza Park","kind":"park"},"geometry":{"type":"Polygon","coordinates":[[[-122.4390431,37.790204],[-122.4393601,37.7917729],[-122.4363044,37.7921585],[-122.4359874,37.7905896],[-122.4390431,37.790204]]]}},{"type":"Feature","properties":{"name":"Lafayette Park","kind":"park"},"geometry":{"type":"Polygon","coordinates":[[[-122.4260147,37.791311],[-122.4259426,37.7909608],[-122.4290035,37.7905735],[-122.4293215,37.7921472],[-122.4262617,37.7925355],[-122.4260864,37.7916617],[-122.4265702,37.7915992],[-122.4264995,37.7912496],[-122.4260147,37.791311]]]}},{"type":"Feature","properties":{"name":null,"kind":"park"},"geometry":{"type":"Polygon","coordinates":[[[-122.4467404,37.8018673],[-122.4471979,37.8041123],[-122.447226,37.8042504],[-122.4473278,37.804249],[-122.4474358,37.8042248],[-122.4475891,37.8042319],[-122.4476689,37.8042315],[-122.4477278,37.804251],[-122.4477728,37.8042545],[-122.4478335,37.80424],[-122.4478961,37.8042405],[-122.4480589,37.8042093],[-122.4481497,37.8042132],[-122.448167,37.8042174],[-122.4482515,37.8042379],[-122.4482752,37.804394],[-122.4482779,37.8043981],[-122.4482843,37.8043997],[-122.4482915,37.8043976],[-122.448294,37.8043926],[-122.4486298,37.8042793],[-122.4487575,37.8042177],[-122.4487994,37.8041878],[-122.4488333,37.8041448],[-122.4484982,37.8038178],[-122.4485908,37.8037529],[-122.4486752,37.8036814],[-122.4487455,37.8036102],[-122.4488154,37.8035225],[-122.4488706,37.8034399],[-122.4489239,37.8033371],[-122.4489589,37.8032448],[-122.4489812,37.8031466],[-122.4489891,37.8030542],[-122.4489878,37.8029513],[-122.448972,37.8028491],[-122.4489426,37.802742],[-122.4488992,37.8026311],[-122.4488321,37.8025179],[-122.4487456,37.8024093],[-122.4486569,37.8023247],[-122.4485601,37.8022482],[-122.4484419,37.8021713],[-122.4483102,37.8021108],[-122.4481392,37.8020472],[-122.4483141,37.8016513],[-122.4482185,37.8016402],[-122.4481299,37.801639],[-122.4480572,37.8016468],[-122.4479827,37.8016614],[-122.4478421,37.8017132],[-122.4477725,37.8017325],[-122.4467404,37.8018673]]]}},{"type":"Feature","properties":{"name":"Ocean View Park","kind":"park"},"geometry":{"type":"Polygon","coordinates":[[[-122.4561974,37.7150049],[-122.4589772,37.7149854],[-122.4589898,37.7160091],[-122.4589963,37.7165363],[-122.4567051,37.7165471],[-122.4564583,37.7165491],[-122.4562126,37.716551],[-122.4561974,37.7150049]]]}},{"type":"Feature","properties":{"name":"Potrero Hill Recreation Center","kind":"park"},"geometry":{"type":"Polygon","coordinates":[[[-122.3979306,37.7573861],[-122.3961971,37.7575008],[-122.3960764,37.7564808],[-122.3959101,37.7550746],[-122.3976678,37.7549558],[-122.3977767,37.7559627],[-122.3977994,37.7561792],[-122.3978363,37.7565199],[-122.3979306,37.7573861]]]}},{"type":"Feature","properties":{"name":"Pier 94 Wetlands","kind":"park"},"geometry":{"type":"Polygon","coordinates":[[[-122.3757641,37.7443948],[-122.3759166,37.744554],[-122.3763876,37.745046],[-122.3764139,37.7454883],[-122.3764465,37.745486],[-122.3765086,37.7455407],[-122.3765007,37.7455926],[-122.3764878,37.7456777],[-122.3763456,37.7456892],[-122.37647,37.7467391],[-122.376704,37.7471187],[-122.3765667,37.7471594],[-122.3764491,37.7471373],[-122.376335,37.7471391],[-122.3756453,37.7470226],[-122.3752341,37.7468542],[-122.3749812,37.7466455],[-122.374883,37.7465428],[-122.3748355,37.7463976],[-122.3748501,37.7460871],[-122.3749188,37.7459038],[-122.3742092,37.7450175],[-122.3739764,37.7449494],[-122.3739464,37.7447577],[-122.3755739,37.7444941],[-122.3757641,37.7443948]]]}},{"type":"Feature","properties":{"name":"Mission Creek Park","kind":"park"},"geometry":{"type":"Polygon","coordinates":[[[-122.3943143,37.7730306],[-122.394124,37.7731188],[-122.3921924,37.7746885],[-122.3918094,37.7743723],[-122.3937652,37.7728026],[-122.3949831,37.7718772],[-122.395868,37.7711897],[-122.3960942,37.7708698],[-122.3961194,37.7708244],[-122.3961503,37.7707815],[-122.3961896,37.7707542],[-122.3962692,37.7707098],[-122.3963065,37.770675],[-122.3963538,37.7706147],[-122.3963751,37.7705969],[-122.3964151,37.7705737],[-122.3964832,37.7705542],[-122.3966982,37.7704948],[-122.3967865,37.7704617],[-122.3968317,37.7704399],[-122.3970611,37.7703145],[-122.3971289,37.7702809],[-122.3972311,37.770242],[-122.3973253,37.7702159],[-122.3974477,37.7701931],[-122.3974515,37.7702118],[-122.3975064,37.7702062],[-122.3975031,37.7701852],[-122.3977407,37.770182],[-122.3978207,37.7701741],[-122.3979065,37.7701545],[-122.3980091,37.7701073],[-122.3982618,37.7699124],[-122.3982738,37.769921],[-122.398324,37.7698845],[-122.398344,37.7698766],[-122.3983672,37.7698748],[-122.3983876,37.7698805],[-122.3984086,37.7698936],[-122.3986413,37.7700803],[-122.3985647,37.7701394],[-122.3984197,37.7700239],[-122.3983854,37.7700241],[-122.3982084,37.7701591],[-122.3981743,37.7701568],[-122.397668,37.7706081],[-122.3968349,37.7712321],[-122.3957814,37.7719846],[-122.3948105,37.772651],[-122.3944211,37.7729282],[-122.3943143,37.7730306]]]}},{"type":"Feature","properties":{"name":"Aquatic Park Historic District","kind":"park"},"geometry":{"type":"Polygon","coordinates":[[[-122.421709,37.8079636],[-122.4216219,37.8078767],[-122.4216008,37.8077712],[-122.4215322,37.807434],[-122.4208211,37.8075189],[-122.4206717,37.8067721],[-122.4206762,37.8067714],[-122.4210066,37.806976],[-122.4210338,37.8070243],[-122.4211744,37.8071085],[-122.4212168,37.8071202],[-122.4212681,37.8071111],[-122.4212978,37.8070856],[-122.4213035,37.8070471],[-122.4212911,37.8070158],[-122.4212577,37.8069945],[-122.4211029,37.8069426],[-122.4208248,37.8067803],[-122.4207368,37.8067263],[-122.4221042,37.8065523],[-122.4243747,37.8062637],[-122.4243701,37.8062408],[-122.424894,37.8061748],[-122.4248794,37.8061035],[-122.4253174,37.8060442],[-122.4253777,37.8062884],[-122.4254434,37.8064178],[-122.4255282,37.8065528],[-122.4256908,37.8067589],[-122.4257978,37.8068508],[-122.4259333,37.8069597],[-122.4261189,37.8071415],[-122.426252,37.8073066],[-122.4261253,37.8073404],[-122.425877,37.8071579],[-122.4255194,37.8069585],[-122.4251049,37.806774],[-122.4247091,37.8066555],[-122.424679,37.8066449],[-122.4242548,37.8067168],[-122.4235526,37.8069036],[-122.4221837,37.8075995],[-122.421709,37.8079636]]]}},{"type":"Feature","properties":{"name":"Music Concourse","kind":"park"},"geometry":{"type":"Polygon","coordinates":[[[-122.4689814,37.7703691],[-122.4689433,37.7703959],[-122.4679836,37.7710792],[-122.4672228,37.7716321],[-122.4671809,37.7716577],[-122.4671303,37.7716783],[-122.4670852,37.7716938],[-122.4670373,37.7717054],[-122.4669891,37.7717115],[-122.4669454,37.7717139],[-122.4669,37.7717127],[-122.4668528,37.7717073],[-122.4667478,37.7716847],[-122.4666441,37.7716492],[-122.4665536,37.7716103],[-122.4663951,37.7715155],[-122.4662744,37.7714174],[-122.4661833,37.7713054],[-122.4661108,37.7711656],[-122.4660757,37.7710245],[-122.4660981,37.7708825],[-122.4661881,37.7707564],[-122.4661911,37.7707541],[-122.4663461,37.7706382],[-122.46685,37.7702739],[-122.4675709,37.7697583],[-122.4679112,37.7695208],[-122.467924,37.769532],[-122.4681414,37.7693831],[-122.4681868,37.7693816],[-122.4683129,37.7694927],[-122.4683672,37.7695134],[-122.468588,37.7697015],[-122.4688855,37.7699674],[-122.4691805,37.7702213],[-122.4689814,37.7703691]]]}},{"type":"Feature","properties":{"name":"Parkside Square","kind":"park"},"geometry":{"type":"Polygon","coordinates":[[[-122.4828408,37.7373924],[-122.4828489,37.7375178],[-122.4828771,37.7379143],[-122.4829824,37.7379097],[-122.483051,37.7388969],[-122.4849813,37.738813],[-122.48486,37.7370669],[-122.4828244,37.7371553],[-122.4828408,37.7373924]]]}},{"type":"Feature","properties":{"name":"Holly Park","kind":"park"},"geometry":{"type":"Polygon","coordinates":[[[-122.4202834,37.7362243],[-122.4204215,37.7362509],[-122.4205436,37.7362933],[-122.4206495,37.7363431],[-122.4207421,37.7364057],[-122.4208265,37.7364842],[-122.4209016,37.7365765],[-122.42097,37.7366857],[-122.4210049,37.7367833],[-122.421029,37.7368989],[-122.4210398,37.736971],[-122.4210384,37.7370707],[-122.4210264,37.7371736],[-122.4210049,37.7372605],[-122.4209767,37.7373592],[-122.4209285,37.7374864],[-122.4208688,37.7375877],[-122.4207769,37.7377049],[-122.4206804,37.7378089],[-122.4205664,37.7379149],[-122.420439,37.7380082],[-122.4203223,37.7380751],[-122.4201922,37.738127],[-122.4200621,37.7381673],[-122.4199307,37.738196],[-122.4197845,37.7382129],[-122.4196383,37.7382098],[-122.4194868,37.7381854],[-122.419346,37.738144],[-122.4192521,37.7380942],[-122.4191555,37.7380305],[-122.4190684,37.7379616],[-122.4189946,37.7378831],[-122.4189329,37.7377749],[-122.41889,37.737672],[-122.4188685,37.7375819],[-122.4188524,37.7374801],[-122.4188557,37.7373889],[-122.4188632,37.7372796],[-122.4188893,37.7371672],[-122.4189208,37.7370665],[-122.4189637,37.7369636],[-122.4190214,37.7368596],[-122.4190858,37.7367631],[-122.4191622,37.7366719],[-122.4192467,37.7365839],[-122.4193607,37.7364863],[-122.4194734,37.7364068],[-122.4195994,37.7363389],[-122.4197362,37.7362848],[-122.4198663,37.7362487],[-122.4200071,37.7362233],[-122.4201533,37.7362125],[-122.4202834,37.7362243]]]}},{"type":"Feature","properties":{"name":"Marina Green","kind":"park"},"geometry":{"type":"Polygon","coordinates":[[[-122.4421086,37.8059617],[-122.4422061,37.8064408],[-122.4422031,37.8064551],[-122.4421953,37.806467],[-122.4421812,37.8064743],[-122.4361879,37.8072357],[-122.4361724,37.8072343],[-122.4361594,37.8072287],[-122.4361502,37.8072144],[-122.4360519,37.8067311],[-122.4421086,37.8059617]]]}},{"type":"Feature","properties":{"name":"Larsen Park","kind":"park"},"geometry":{"type":"Polygon","coordinates":[[[-122.4756964,37.7411193],[-122.4765664,37.7410814],[-122.4763224,37.7374923],[-122.4754532,37.7375284],[-122.4756964,37.7411193]]]}},{"type":"Feature","properties":{"name":"McCoppin Square","kind":"park"},"geometry":{"type":"Polygon","coordinates":[[[-122.4809767,37.7429364],[-122.4810331,37.7438127],[-122.481089,37.744599],[-122.4791726,37.74468],[-122.4790746,37.7433231],[-122.4795856,37.7433],[-122.4795663,37.7429992],[-122.4797014,37.7429908],[-122.4800477,37.7429756],[-122.4809767,37.7429364]]]}},{"type":"Feature","properties":{"name":"Mission Creek Park","kind":"park"},"geometry":{"type":"Polygon","coordinates":[[[-122.3971938,37.7719325],[-122.3968768,37.7721721],[-122.3965706,37.7724198],[-122.3963064,37.7726284],[-122.3959286,37.7729267],[-122.3959182,37.7729342],[-122.3958823,37.7729617],[-122.3958452,37.7729901],[-122.3958301,37.7730018],[-122.3952753,37.7734388],[-122.3957277,37.7737947],[-122.3952797,37.774141],[-122.394842,37.7737789],[-122.3942783,37.7742369],[-122.3941654,37.7743195],[-122.3936209,37.7747518],[-122.3935399,37.7748423],[-122.3935219,37.7748305],[-122.3934449,37.774893],[-122.3933009,37.7750136],[-122.3932279,37.7750703],[-122.3930194,37.7752359],[-122.3929459,37.7752953],[-122.3928763,37.775241],[-122.3928201,37.7751967],[-122.3927739,37.7751595],[-122.3927816,37.7751282],[-122.3928091,37.7751019],[-122.3928519,37.7750791],[-122.3930862,37.7749936],[-122.3931457,37.7749597],[-122.3932158,37.7749071],[-122.3934308,37.7746826],[-122.3947519,37.7736818],[-122.3947949,37.7735995],[-122.3948364,37.7735452],[-122.3948793,37.7735022],[-122.3949551,37.7734518],[-122.3949736,37.7734661],[-122.3950972,37.7733952],[-122.3952282,37.7732908],[-122.3962309,37.7725192],[-122.3970866,37.7718488],[-122.3970405,37.7718078],[-122.3976384,37.7713509],[-122.3982015,37.7708851],[-122.3982123,37.7708762],[-122.398671,37.7705013],[-122.3985591,37.770411],[-122.398518,37.7703183],[-122.3985212,37.770225],[-122.3985647,37.7701394],[-122.3986413,37.7700803],[-122.3989559,37.7703328],[-122.3989896,37.7703712],[-122.3994192,37.7707158],[-122.39944,37.7707667],[-122.399426,37.770825],[-122.3993944,37.7708674],[-122.3992503,37.770979],[-122.3992458,37.7710076],[-122.3984132,37.7716675],[-122.3976389,37.7722832],[-122.3971938,37.7719325]]]}},{"type":"Feature","properties":{"name":"Golden Gate Heights Park","kind":"park"},"geometry":{"type":"Polygon","coordinates":[[[-122.4707004,37.750646],[-122.4705048,37.7504956],[-122.4704585,37.7504811],[-122.4703727,37.7504743],[-122.4703133,37.7504779],[-122.4702667,37.7504882],[-122.4701632,37.7505605],[-122.4700459,37.7506439],[-122.469948,37.7506894],[-122.4698632,37.75071],[-122.4697122,37.7507273],[-122.4686984,37.750774],[-122.4686018,37.7506552],[-122.4685318,37.7505],[-122.4684731,37.750282],[-122.4684881,37.7500459],[-122.468495,37.7499367],[-122.4684977,37.7497642],[-122.4684638,37.7496867],[-122.4684436,37.7496406],[-122.4684301,37.749524],[-122.4684516,37.7494252],[-122.4684794,37.7493642],[-122.4685267,37.7493149],[-122.4686662,37.7492131],[-122.4689818,37.749143],[-122.4693033,37.7492618],[-122.4693987,37.7492432],[-122.4696617,37.7493705],[-122.4698513,37.7493575],[-122.4700564,37.7493777],[-122.470295,37.7494359],[-122.4704686,37.7496118],[-122.4705653,37.749738],[-122.4706359,37.7498618],[-122.4706588,37.7501729],[-122.4707004,37.750646]]]}},{"type":"Feature","properties":{"name":"George Christopher Playground","kind":"park"},"geometry":{"type":"Polygon","coordinates":[[[-122.4417543,37.7434223],[-122.4406492,37.743838],[-122.4406429,37.7439404],[-122.440639,37.7440052],[-122.4405981,37.7446735],[-122.4402444,37.7446507],[-122.4401057,37.7448303],[-122.4399973,37.7448869],[-122.4399019,37.7447904],[-122.4398164,37.7447146],[-122.4397193,37.7446488],[-122.4396257,37.7445884],[-122.4400373,37.7446153],[-122.4401227,37.7438585],[-122.4401518,37.7435488],[-122.4399382,37.7435361],[-122.4399664,37.7432275],[-122.4388646,37.7431601],[-122.4379771,37.7433994],[-122.4380013,37.7433336],[-122.4382295,37.7432705],[-122.4382341,37.7431922],[-122.438295,37.7431761],[-122.4383081,37.7430984],[-122.438452,37.743025],[-122.438435,37.7430043],[-122.4386614,37.7429018],[-122.43874,37.7428842],[-122.4389983,37.7429074],[-122.4399626,37.7430235],[-122.4406168,37.7426897],[-122.4406908,37.7427042],[-122.4410073,37.7425851],[-122.4410272,37.7425085],[-122.4412178,37.742383],[-122.4414271,37.7426375],[-122.4417543,37.7434223]]]}},{"type":"Feature","properties":{"name":"Crane Cove Park","kind":"park"},"geometry":{"type":"Polygon","coordinates":[[[-122.3876093,37.7619188],[-122.3875676,37.7618912],[-122.3875117,37.7618818],[-122.3874395,37.7618824],[-122.387317,37.7618627],[-122.3872614,37.761849],[-122.3871783,37.761825],[-122.3871016,37.7617998],[-122.3870398,37.7617739],[-122.3869806,37.7617443],[-122.3868777,37.7616903],[-122.3868535,37.7616785],[-122.386646,37.7616089],[-122.3867057,37.7620427],[-122.3867126,37.7620828],[-122.3867446,37.7621311],[-122.3861525,37.7633456],[-122.3864283,37.7634108],[-122.3863392,37.7636125],[-122.386715,37.7639243],[-122.3867223,37.7640598],[-122.3876775,37.7640107],[-122.3877857,37.7640037],[-122.3877797,37.7639148],[-122.3873338,37.7639424],[-122.3873174,37.7637125],[-122.3876162,37.7636227],[-122.3876164,37.7636634],[-122.3877392,37.7636603],[-122.3877299,37.763582],[-122.3877218,37.7629717],[-122.3876367,37.7620199],[-122.3876269,37.7619544],[-122.3876093,37.7619188]]]}},{"type":"Feature","properties":{"name":"Angelo Rossi Park","kind":"park"},"geometry":{"type":"Polygon","coordinates":[[[-122.4569123,37.7781552],[-122.456304,37.7782381],[-122.4565464,37.7794853],[-122.4565552,37.7795117],[-122.4565773,37.7795312],[-122.456607,37.7795406],[-122.4566333,37.7795386],[-122.4566741,37.7795265],[-122.4567658,37.7795023],[-122.4569811,37.7794699],[-122.4577997,37.7793708],[-122.4585698,37.7792694],[-122.4584846,37.7781011],[-122.4580699,37.7781538],[-122.4577436,37.7781949],[-122.457554,37.7782197],[-122.4571751,37.7782728],[-122.4571401,37.7782758],[-122.4571058,37.7782752],[-122.45708,37.7782719],[-122.457051,37.7782654],[-122.4570235,37.7782568],[-122.4570003,37.7782471],[-122.4569768,37.7782354],[-122.4569548,37.7782193],[-122.4569382,37.7782014],[-122.4569234,37.7781822],[-122.4569123,37.7781552]]]}},{"type":"Feature","properties":{"name":"Youngblood-Coleman Playground","kind":"park"},"geometry":{"type":"Polygon","coordinates":[[[-122.3855393,37.7398543],[-122.3860565,37.7392614],[-122.3843071,37.7382932],[-122.3845314,37.7380398],[-122.3841984,37.7378214],[-122.3840203,37.7376387],[-122.3839722,37.7376403],[-122.3839241,37.7376517],[-122.3838587,37.7376631],[-122.3837877,37.7376751],[-122.3837263,37.737677],[-122.3836806,37.7376779],[-122.3836217,37.7376789],[-122.3835579,37.7376732],[-122.3835206,37.7376656],[-122.3835423,37.7381745],[-122.3831463,37.7381812],[-122.3831593,37.7385511],[-122.3855393,37.7398543]]]}},{"type":"Feature","properties":{"name":"Raymond Kimbell Playground","kind":"park"},"geometry":{"type":"Polygon","coordinates":[[[-122.4358521,37.7837603],[-122.4356935,37.783785],[-122.4356449,37.7837917],[-122.4351533,37.7838549],[-122.4350367,37.7838699],[-122.4348427,37.7838959],[-122.4346423,37.7839322],[-122.434546,37.7835417],[-122.434538,37.7835055],[-122.4344695,37.7831538],[-122.4344484,37.7830601],[-122.4342943,37.7822308],[-122.4350854,37.7821228],[-122.435744,37.7820487],[-122.4359154,37.782418],[-122.4359898,37.7827864],[-122.4359976,37.7828083],[-122.4360113,37.7828298],[-122.4360345,37.7828482],[-122.4360654,37.7828598],[-122.4360971,37.7828636],[-122.4361103,37.7829414],[-122.4361147,37.7829679],[-122.4358264,37.7830031],[-122.4359008,37.78337],[-122.4357631,37.7833874],[-122.4357994,37.7835381],[-122.4358491,37.7837474],[-122.4358521,37.7837603]]]}},{"type":"Feature","properties":{"name":null,"kind":"park"},"geometry":{"type":"Polygon","coordinates":[[[-122.4944069,37.7403594],[-122.4942847,37.7386144],[-122.4941529,37.7367334],[-122.4940389,37.7351059],[-122.4940386,37.7351016],[-122.4941456,37.7350417],[-122.4942318,37.7349942],[-122.494377,37.7349142],[-122.4944876,37.7349802],[-122.4947325,37.7384759],[-122.4948631,37.7403392],[-122.4944069,37.7403594]]]}},{"type":"Feature","properties":{"name":"Pioneer Park","kind":"park"},"geometry":{"type":"Polygon","coordinates":[[[-122.4052351,37.8019678],[-122.4053403,37.8018741],[-122.4054792,37.8018112],[-122.4057958,37.8017725],[-122.4061452,37.8017248],[-122.406184,37.8017829],[-122.4062269,37.8018225],[-122.4062667,37.8018443],[-122.4062933,37.8018475],[-122.4063188,37.8018628],[-122.406328,37.8018766],[-122.4063556,37.8018798],[-122.4064804,37.802508],[-122.4065461,37.8026303],[-122.4066588,37.8026197],[-122.4066975,37.802968],[-122.4066773,37.8031023],[-122.4065444,37.8032166],[-122.4062752,37.8033575],[-122.4062062,37.8034293],[-122.4061911,37.803537],[-122.4062436,37.8035931],[-122.4047509,37.8037696],[-122.4046583,37.8032458],[-122.4054811,37.8031501],[-122.4053987,37.802754],[-122.4053438,37.8024899],[-122.4052351,37.8019678]]]}},{"type":"Feature","properties":{"name":null,"kind":"park"},"geometry":{"type":"Polygon","coordinates":[[[-122.4938855,37.7351145],[-122.4939871,37.7365702],[-122.4941109,37.7383438],[-122.4941146,37.7383961],[-122.4941157,37.7384124],[-122.494246,37.740273],[-122.4942525,37.7403662],[-122.4937932,37.7403864],[-122.4936732,37.7385227],[-122.4936651,37.7383987],[-122.493431,37.7349821],[-122.4934917,37.7349747],[-122.4935903,37.7349868],[-122.49378,37.7350676],[-122.4938855,37.7351145]]]}},{"type":"Feature","properties":{"name":"Jefferson Square","kind":"park"},"geometry":{"type":"Polygon","coordinates":[[[-122.4271112,37.7812309],[-122.4272644,37.7819956],[-122.4242264,37.7823755],[-122.4240733,37.7816108],[-122.4271112,37.7812309]]]}},{"type":"Feature","properties":{"name":"Bayfront Park","kind":"park"},"geometry":{"type":"Polygon","coordinates":[[[-122.3862312,37.7695963],[-122.386155,37.7696449],[-122.38569,37.7696693],[-122.3856334,37.7696705],[-122.3854569,37.7696743],[-122.3850346,37.7687659],[-122.3853462,37.7679098],[-122.3853527,37.7673664],[-122.3857576,37.7667348],[-122.3859624,37.7667876],[-122.3862312,37.7695963]]]}},{"type":"Feature","properties":{"name":"India Basin Open Space","kind":"park"},"geometry":{"type":"Polygon","coordinates":[[[-122.3698442,37.7324663],[-122.37041,37.7327618],[-122.3707081,37.7330212],[-122.3707245,37.7330247],[-122.3709981,37.7330822],[-122.3713524,37.7333502],[-122.371475,37.7335017],[-122.3719064,37.733948],[-122.3721548,37.7341132],[-122.372472,37.7340066],[-122.3727721,37.7337384],[-122.3728935,37.733505],[-122.3728556,37.7334335],[-122.3729186,37.7334493],[-122.3729811,37.733408],[-122.3730865,37.7333389],[-122.3733097,37.7331932],[-122.3737732,37.7328116],[-122.3739974,37.7326663],[-122.3743988,37.7325321],[-122.3744304,37.7324372],[-122.3742768,37.7323516],[-122.3740727,37.7322378],[-122.3738446,37.7323707],[-122.3736357,37.7324865],[-122.3733789,37.7326213],[-122.3732132,37.7327485],[-122.3730332,37.732927],[-122.3728747,37.7330713],[-122.3725771,37.7331795],[-122.3722163,37.7334227],[-122.3720178,37.7333006],[-122.371959,37.7333067],[-122.3719024,37.7332955],[-122.3718374,37.7332698],[-122.3717947,37.7332424],[-122.3717581,37.7332022],[-122.3717337,37.7331588],[-122.3717256,37.7331122],[-122.3717377,37.733072],[-122.3709896,37.7327177],[-122.3706495,37.7325456],[-122.3704755,37.7324018],[-122.3703332,37.7323893],[-122.3698789,37.7321379],[-122.3697498,37.7322795],[-122.3696678,37.7323706],[-122.3696439,37.7323984],[-122.3697202,37.7324245],[-122.3698442,37.7324663]]]}},{"type":"Feature","properties":{"name":"Silver Terrace Playground","kind":"park"},"geometry":{"type":"Polygon","coordinates":[[[-122.4036081,37.7321704],[-122.4035051,37.7321636],[-122.402518,37.7324172],[-122.4025058,37.7323872],[-122.4024386,37.7322219],[-122.4024234,37.7321845],[-122.4018571,37.732503],[-122.4023348,37.7329936],[-122.4029214,37.7335959],[-122.4030845,37.7334941],[-122.4032819,37.7336842],[-122.4043247,37.7330641],[-122.4044192,37.733021],[-122.4036081,37.7321704]]]}},{"type":"Feature","properties":{"name":"Civic Center Plaza","kind":"park"},"geometry":{"type":"Polygon","coordinates":[[[-122.418067,37.7786194],[-122.4167772,37.7787832],[-122.4169687,37.7797101],[-122.4170838,37.7798329],[-122.4171093,37.7798931],[-122.4171663,37.7801949],[-122.4170617,37.7802087],[-122.4170803,37.7803002],[-122.4171435,37.7803353],[-122.4171869,37.7803597],[-122.4174824,37.7803231],[-122.4174654,37.7802392],[-122.417959,37.7801791],[-122.4180011,37.7801789],[-122.4180425,37.7801845],[-122.4181255,37.7802066],[-122.4181743,37.7802179],[-122.4182246,37.7802186],[-122.4183848,37.7801982],[-122.4184427,37.7801243],[-122.4181512,37.778669],[-122.418067,37.7786194]]]}}]}